postcode,suburb,lat,lon
4000,BRISBANE,-27.46758,153.027892
4000,BRISBANE ADELAIDE STREET,-27.466517,153.027495
4000,SPRING HILL,-27.460873,153.024454
4001,BRISBANE,-27.603479,152.823141
4001,CENTRAL PLAZA,-27.947415,153.394629
4001,RIVERSIDE CENTRE,-27.85943,153.376476
4001,WATERFRONT PLACE,-27.631021,153.31001
4003,GEORGE STREET,-24.872431,152.348462
4004,SPRING HILL,-24.045265,149.316593
4005,NEW FARM,-27.467878,153.047052
4006,BOWEN HILLS,-27.444163,153.038407
4006,FORTITUDE VALLEY,-27.457442,153.03367
4006,HERSTON,-27.4446,153.018473
4006,NEWSTEAD,-27.444768,153.043053
4007,ASCOT,-27.43027,153.058679
4007,HAMILTON,-27.439306,153.064277
4007,HAMILTON CENTRAL,-23.649692,150.386919
4008,PINKENBA,-27.42257,153.118782
4009,EAGLE FARM,-27.430729,153.091148
4010,ALBION,-27.428026,153.045205
4011,CLAYFIELD,-27.417536,153.056677
4011,HENDRA,-27.419238,153.073694
4012,NUNDAH,-27.40344,153.060428
4012,TOOMBUL,-27.40766,153.059833
4012,WAVELL HEIGHTS,-27.38975,153.049858
4012,WAVELL HEIGHTS NORTH,-27.38975,153.049858
4013,NORTHGATE,-27.389718,153.066343
4014,BANYO,-27.375825,153.076469
4014,NUDGEE,-27.368598,153.087192
4014,NUDGEE BEACH,-27.347485,153.105548
4014,VIRGINIA,-27.36946,153.062076
4017,BRACKEN RIDGE,-27.327545,153.025938
4017,BRIGHTON,-27.306516,153.050851
4017,BRIGHTON EVENTIDE,-27.289478,153.063613
4017,BRIGHTON NATHAN STREET,-27.303486,153.053539
4017,DEAGON,-27.327255,153.055845
4017,SANDGATE,-27.321538,153.069267
4017,SHORNCLIFFE,-27.327589,153.086102
4018,FITZGIBBON,-27.349074,153.031804
4018,TAIGUM,-27.351215,153.046149
4019,CLONTARF,-27.25958,153.08211
4019,CLONTARF BEACH,-27.258844,153.087202
4019,MARGATE,-27.245098,153.106689
4019,MARGATE BEACH,-27.245007,153.112154
4019,WOODY POINT,-27.258621,153.104133
4020,REDCLIFFE,-27.231153,153.115686
4020,REDCLIFFE NORTH,-27.216107,153.11224
4020,SCARBOROUGH,-27.200145,153.11493
4021,KIPPA-RING,-27.226494,153.085287
4022,ROTHWELL,-27.213109,153.048135
4025,BULWER,-27.076847,153.367844
4025,CAPE MORETON,-27.026892,153.452601
4025,COWAN COWAN,-27.125814,153.36877
4025,KOORINGAL,-27.349731,153.419507
4025,TANGALOOMA,-27.176714,153.376063
4029,ROYAL BRISBANE HOSPITAL,-27.44768,153.026906
4030,LUTWYCHE,-27.422714,153.033723
4030,WINDSOR,-27.435277,153.031507
4030,WOOLOOWIN,-27.418093,153.039623
4031,GORDON PARK,-27.414955,153.026877
4031,KEDRON,-27.408347,153.032292
4032,CHERMSIDE,-27.38613,153.032142
4032,CHERMSIDE CENTRE,-27.384021,153.032206
4032,CHERMSIDE SOUTH,-27.391685,153.03128
4032,CHERMSIDE WEST,-27.37862,153.018257
4034,ASPLEY,-27.36386,153.015737
4034,BOONDALL,-27.348677,153.060157
4034,CARSELDINE,-27.346256,153.01394
4034,GEEBUNG,-27.369382,153.047819
4034,ZILLMERE,-27.358288,153.038394
4035,ALBANY CREEK,-27.345529,152.968403
4035,BRIDGEMAN DOWNS,-27.354965,152.994198
4036,BALD HILLS,-27.306169,153.0126
4037,EATONS HILL,-27.337969,152.949561
4051,ALDERLEY,-27.424422,153.000517
4051,ENOGGERA,-27.42446,152.985565
4051,GAYTHORNE,-27.418369,152.986155
4051,GRANGE,-27.426001,153.01479
4051,NEWMARKET,-27.436957,153.006875
4051,WILSTON,-27.43221,153.019599
4053,BROOKSIDE CENTRE,-27.409023,152.980333
4053,EVERTON HILLS,-27.391441,152.972115
4053,EVERTON PARK,-27.406931,152.992265
4053,MCDOWALL,-27.381917,152.988262
4053,MITCHELTON,-27.410888,152.974465
4053,STAFFORD,-27.409722,153.011256
4053,STAFFORD HEIGHTS,-27.391247,153.011369
4054,ARANA HILLS,-27.397523,152.959538
4054,KEPERRA,-27.40916,152.958106
4055,BUNYA,-27.369847,152.937598
4055,FERNY GROVE,-27.405213,152.930694
4055,FERNY HILLS,-27.394344,152.938409
4055,UPPER KEDRON,-27.415979,152.913444
4059,KELVIN GROVE,-27.448419,153.013533
4059,RED HILL,-27.454711,153.006691
4060,ASHGROVE,-27.445603,152.99212
4060,ASHGROVE WEST,-27.449307,152.978508
4061,THE GAP,-27.443306,152.943847
4064,MILTON,-27.471324,153.004781
4064,PADDINGTON,-27.460527,153.002486
4065,BARDON,-27.463451,152.980035
4066,AUCHENFLOWER,-27.475531,152.993415
4066,MOUNT COOT-THA,-27.476495,152.946127
4066,TOOWONG,-27.485567,152.992096
4067,ST LUCIA,-27.493869,153.006059
4067,ST LUCIA SOUTH,-27.502432,153.005669
4068,CHELMER,-27.514343,152.976732
4068,INDOOROOPILLY,-27.497247,152.973849
4068,INDOOROOPILLY CENTRE,-27.499537,152.972812
4068,TARINGA,-27.490788,152.979036
4069,BROOKFIELD,-27.490924,152.897741
4069,CHAPEL HILL,-27.502593,152.950156
4069,FIG TREE POCKET,-27.52507,152.956492
4069,KENMORE,-27.507532,152.939045
4069,KENMORE EAST,-27.509176,152.94769
4069,KENMORE HILLS,-27.49615,152.926702
4069,PINJARRA HILLS,-27.539621,152.903445
4069,PULLENVALE,-27.51695,152.891085
4069,UPPER BROOKFIELD,-27.485601,152.859062
4070,ANSTEAD,-27.545591,152.87227
4070,BELLBOWRIE,-27.561999,152.886806
4070,MOGGILL,-27.570335,152.874633
4072,UNIVERSITY OF QUEENSLAND,-27.548962,152.330088
4073,SEVENTEEN MILE ROCKS,-27.550889,152.958818
4073,SINNAMON PARK,-27.539217,152.952644
4074,JAMBOREE HEIGHTS,-27.5564,152.93284
4074,JINDALEE,-27.534316,152.934935
4074,MIDDLE PARK,-27.555076,152.923851
4074,MOUNT OMMANEY,-27.548455,152.936478
4074,RIVERHILLS,-27.560496,152.909012
4074,SUMNER,-27.563657,152.93626
4074,WESTLAKE,-27.549464,152.910508
4075,CORINDA,-27.538924,152.981769
4075,GRACEVILLE,-27.524939,152.980993
4075,GRACEVILLE EAST,-27.524939,152.980993
4075,OXLEY,-27.552877,152.974715
4075,SHERWOOD,-27.532449,152.982957
4076,DARRA,-27.567027,152.95327
4076,WACOL,-27.590778,152.929768
4077,DOOLANDELLA,-27.612032,152.979454
4077,DURACK,-27.591662,152.985997
4077,INALA,-27.597301,152.974413
4077,INALA EAST,-27.601135,152.980674
4077,INALA HEIGHTS,-27.587145,152.973187
4077,RICHLANDS,-27.594029,152.948466
4078,ELLEN GROVE,-27.612653,152.950579
4078,FOREST LAKE,-27.623956,152.970063
4101,HIGHGATE HILL,-27.487699,153.018947
4101,SOUTH BRISBANE,-27.474492,153.017391
4101,WEST END,-27.478647,153.01247
4102,BURANDA,-27.499989,153.035349
4102,DUTTON PARK,-27.498009,153.024704
4102,WOOLLOONGABBA,-27.485515,153.029007
4103,ANNERLEY,-27.511609,153.031832
4103,FAIRFIELD,-27.509925,153.024761
4103,FAIRFIELD GARDENS,-27.508965,153.026099
4104,YERONGA,-27.516831,153.017277
4105,MOOROOKA,-27.532844,153.025089
4105,TENNYSON,-27.524513,153.001769
4105,YEERONGPILLY,-27.526307,153.013227
4106,BRISBANE MARKET,-27.534195,152.99934
4106,ROCKLEA,-27.544658,153.013818
4107,SALISBURY,-27.544798,153.029585
4107,SALISBURY EAST,-27.550673,153.036692
4108,ARCHERFIELD,-27.568388,153.024165
4108,COOPERS PLAINS,-27.570271,153.037201
4109,MACGREGOR,-27.567572,153.07787
4109,ROBERTSON,-27.565733,153.057213
4109,SUNNYBANK,-27.578146,153.054514
4109,SUNNYBANK HILLS,-27.611448,153.054261
4109,SUNNYBANK SOUTH,-27.587839,153.06077
4110,ACACIA RIDGE,-27.589633,153.02787
4110,HEATHWOOD,-27.642378,152.985253
4110,LARAPINTA,-27.634508,153.017099
4110,PALLARA,-27.618159,153.000017
4110,WILLAWONG,-27.593448,152.998315
4111,NATHAN,-27.553179,153.056433
4112,KURABY,-27.606379,153.092491
4113,EIGHT MILE PLAINS,-27.575233,153.087585
4113,RUNCORN,-27.588287,153.085259
4114,KINGSTON,-27.660233,153.117675
4114,LOGAN CENTRAL,-27.640948,153.107365
4114,WOODRIDGE,-27.627559,153.099249
4115,ALGESTER,-27.611303,153.033518
4115,PARKINSON,-27.629536,153.04037
4116,CALAMVALE,-27.623928,153.050074
4116,DREWVALE,-27.639126,153.049533
4116,STRETTON,-27.615366,153.070228
4117,BERRINBA,-27.637982,153.083869
4117,KARAWATHA,-27.617514,153.09356
4118,BROWNS PLAINS,-27.660763,153.04015
4118,FORESTDALE,-27.662525,153.008067
4118,HERITAGE PARK,-27.679177,153.061588
4118,HILLCREST,-27.667213,153.023322
4118,REGENTS PARK,-27.670709,153.045294
4119,UNDERWOOD,-27.593616,153.108698
4120,GREENSLOPES,-27.512111,153.053021
4120,STONES CORNER,-27.501368,153.04634
4121,HOLLAND PARK,-27.519259,153.061369
4121,HOLLAND PARK EAST,-27.521199,153.07441
4121,HOLLAND PARK WEST,-27.525519,153.061269
4121,TARRAGINDI,-27.531675,153.044982
4121,WELLERS HILL,-27.519509,153.049927
4122,MANSFIELD,-27.53938,153.099025
4122,MOUNT GRAVATT,-27.542262,153.07386
4122,MOUNT GRAVATT EAST,-27.523967,153.080225
4122,UPPER MOUNT GRAVATT,-27.557821,153.080206
4122,WISHART,-27.549037,153.103974
4123,ROCHEDALE,-27.571214,153.12691
4123,ROCHEDALE SOUTH,-27.595763,153.124084
4124,BORONIA HEIGHTS,-27.690598,153.022217
4124,GREENBANK,-27.699897,153.010625
4124,LYONS,-27.7626,152.836962
4124,NEW BEITH,-27.764365,152.939912
4124,SPRING MOUNTAIN,-27.716946,152.877265
4125,MUNRUBEN,-27.748611,153.025645
4125,PARK RIDGE,-27.698387,153.038292
4125,PARK RIDGE SOUTH,-27.725737,153.030217
4127,DAISY HILL,-27.644265,153.153343
4127,PRIESTDALE,-27.606132,153.153815
4127,SLACKS CREEK,-27.626305,153.117391
4127,SPRINGWOOD,-27.61191,153.126126
4128,SHAILER PARK,-27.650622,153.165162
4128,TANAH MERAH,-27.677768,153.180872
4129,LOGANHOLME,-27.690846,153.178287
4130,CARBROOK,-27.687086,153.276026
4130,CORNUBIA,-27.652089,153.213971
4131,LOGANLEA,-27.675035,153.127293
4131,MEADOWBROOK,-27.663693,153.14015
4132,CRESTMEAD,-27.686848,153.087768
4132,MARSDEN,-27.680509,153.115491
4133,CHAMBERS FLAT,-27.735955,153.087955
4133,LOGAN RESERVE,-27.710995,153.093566
4133,WATERFORD,-27.706705,153.147165
4133,WATERFORD WEST,-27.692095,153.136187
4151,COORPAROO,-27.495194,153.057903
4152,CAMP HILL,-27.493015,153.076507
4152,CARINA,-27.495728,153.088686
4152,CARINA HEIGHTS,-27.503852,153.090545
4152,CARINDALE,-27.505783,153.102356
4153,BELMONT,-27.504978,153.131443
4154,GUMDALE,-27.490918,153.153345
4154,RANSOME,-27.486615,153.180841
4154,WAKERLEY,-27.476266,153.165793
4155,CHANDLER,-19.262174,146.779764
4156,BURBANK,-27.558921,153.163912
4156,MACKENZIE,-27.54678,153.124568
4157,CAPALABA,-27.525711,153.19336
4157,CAPALABA WEST,-27.514226,153.180017
4157,SHELDON,-27.582155,153.197795
4158,THORNESIDE,-27.482971,153.20107
4159,BIRKDALE,-27.498415,153.207434
4160,ORMISTON,-27.518815,153.255284
4160,WELLINGTON POINT,-27.485852,153.238259
4161,ALEXANDRA HILLS,-27.522774,153.220455
4163,CLEVELAND,-27.525781,153.26484
4164,THORNLANDS,-27.563211,153.256977
4165,MOUNT COTTON,-27.621843,153.235294
4165,REDLAND BAY,-27.612549,153.303072
4165,VICTORIA POINT,-27.585692,153.307829
4165,VICTORIA POINT WEST,-27.585189,153.281875
4169,EAST BRISBANE,-27.479652,153.045983
4169,KANGAROO POINT,-27.476067,153.035642
4170,CANNON HILL,-27.469678,153.097305
4170,MORNINGSIDE,-27.468144,153.071979
4170,NORMAN PARK,-27.483205,153.064346
4170,SEVEN HILLS,-27.480712,153.081335
4171,BALMORAL,-27.455696,153.06722
4171,BULIMBA,-27.451514,153.060361
4171,HAWTHORNE,-27.462031,153.060373
4172,MURARRIE,-27.464118,153.109052
4173,TINGALPA,-27.465869,153.133779
4174,HEMMANT,-27.448586,153.12701
4178,LYTTON,-27.4243,153.15545
4178,PORT OF BRISBANE,-27.436307,153.138996
4178,WYNNUM,-27.444359,153.174254
4178,WYNNUM NORTH,-27.436563,153.157986
4178,WYNNUM PLAZA,-27.45711,153.15518
4178,WYNNUM WEST,-27.458702,153.156391
4179,LOTA,-27.465277,153.18128
4179,MANLY,-27.454266,153.185335
4179,MANLY WEST,-27.468021,153.163106
4183,AMITY,-27.397888,153.439075
4183,AMITY POINT,-27.396485,153.44014
4183,DUNWICH,-27.499265,153.402381
4183,NORTH STRADBROKE ISLAND,-27.660974,153.469799
4183,POINT LOOKOUT,-27.427636,153.53624
4184,COOCHIEMUDLO ISLAND,-27.574426,153.332293
4184,KARRAGARRA ISLAND,-27.638614,153.374288
4184,LAMB ISLAND,-27.626264,153.379552
4184,MACLEAY ISLAND,-27.628294,153.363016
4184,PEEL ISLAND,-27.496083,153.357926
4184,PERULPA ISLAND,-27.613192,153.369611
4184,RUSSELL ISLAND,-27.651799,153.381123
4205,BETHANIA,-27.694398,153.155502
4207,ALBERTON,-27.721117,153.270056
4207,BAHRS SCRUB,-27.739135,153.16678
4207,BANNOCKBURN,-27.753854,153.19218
4207,BEENLEIGH,-27.716154,153.202039
4207,BELIVAH,-27.757251,153.186008
4207,BUCCAN,-27.751708,153.141184
4207,CEDAR CREEK,-27.815002,153.162383
4207,EAGLEBY,-27.702563,153.21302
4207,EDENS LANDING,-27.706381,153.169014
4207,HOLMVIEW,-27.711757,153.168852
4207,LOGAN VILLAGE,-27.767054,153.116881
4207,LUSCOMBE,-27.788528,153.231428
4207,MOUNT WARREN PARK,-27.736362,153.204307
4207,STAPYLTON,-27.735206,153.252381
4207,STEIGLITZ,-27.734041,153.353595
4207,WINDAROO,-27.74222,153.188868
4207,WOLFFDENE,-27.783436,153.187009
4207,WOONGOOLBA,-27.74132,153.314789
4207,YARRABILBA,-27.819894,153.12797
4207,YATALA,-27.741831,153.222581
4208,GILBERTON,-27.745013,153.261095
4208,JACOBS WELL,-27.780769,153.364585
4208,KINGSHOLME,-27.816258,153.224825
4208,NORWELL,-27.790249,153.333318
4208,ORMEAU,-27.786214,153.25018
4208,ORMEAU HILLS,-27.788557,153.215716
4209,COOMERA,-27.866592,153.315314
4209,PIMPAMA,-27.80143,153.289121
4209,UPPER COOMERA,-27.880077,153.283204
4209,WILLOW VALE,-27.834784,153.26689
4210,GUANABA,-27.942395,153.233818
4210,MAUDSLAND,-27.946687,153.270009
4210,OXENFORD,-27.890331,153.313087
4210,STUDIO VILLAGE,-27.922641,153.320644
4210,WONGAWALLAN,-27.875339,153.226579
4211,ADVANCETOWN,-28.033052,153.279625
4211,BEECHMONT,-28.125836,153.188479
4211,BINNA BURRA,-28.197416,153.186744
4211,CARRARA,-28.01576,153.368672
4211,CLAGIRABA,-27.988526,153.243084
4211,GAVEN,-27.938611,153.328537
4211,GILSTON,-28.036851,153.308925
4211,HIGHLAND PARK,-28.011333,153.332541
4211,LOWER BEECHMONT,-28.05745,153.241615
4211,MOUNT NATHAN,-27.99396,153.282488
4211,NATURAL BRIDGE,-28.198036,153.23069
4211,NERANG,-27.991461,153.335135
4211,NUMINBAH VALLEY,-28.147098,153.227779
4211,O'REILLY,-19.298559,146.781175
4211,PACIFIC PINES,-27.932454,153.326156
4211,SOUTHERN LAMINGTON,-28.280114,153.105606
4212,HELENSVALE,-27.922459,153.334793
4212,HELENSVALE TOWN CENTRE,-27.922824,153.338701
4212,HOPE ISLAND,-27.875249,153.359356
4212,SANCTUARY COVE,-27.853871,153.359434
4213,AUSTINVILLE,-28.135818,153.317485
4213,BONOGIN,-28.138318,153.341577
4213,MUDGEERABA,-28.078272,153.365082
4213,SPRINGBROOK,-28.214651,153.269084
4213,TALLAI,-28.056562,153.328655
4213,WORONGARY,-28.060559,153.340078
4214,ARUNDEL,-27.939708,153.372781
4214,ASHMORE,-27.986382,153.382051
4214,ASHMORE CITY,-27.977364,153.380597
4214,MOLENDINAR,-27.98342,153.369438
4214,PARKWOOD,-27.946583,153.370524
4215,AUSTRALIA FAIR,-27.968379,153.415136
4215,LABRADOR,-27.946118,153.386034
4215,SOUTHPORT,-27.984113,153.411076
4215,SOUTHPORT PARK,-27.985692,153.40933
4216,BIGGERA WATERS,-27.934226,153.400356
4216,COOMBABAH,-27.898797,153.377527
4216,HOLLYWELL,-27.894737,153.398579
4216,PARADISE POINT,-27.886767,153.394247
4216,RUNAWAY BAY,-27.924638,153.403848
4216,SOUTH STRADBROKE,-27.842566,153.425891
4217,BENOWA,-28.005753,153.387475
4217,BUNDALL,-28.004167,153.406842
4217,CHEVRON ISLAND,-27.997865,153.418505
4217,ISLE OF CAPRI,-28.010795,153.421979
4217,MAIN BEACH,-27.979642,153.424854
4217,SURFERS PARADISE,-28.00228,153.431052
4218,BROADBEACH,-28.029363,153.4312
4218,BROADBEACH WATERS,-28.024641,153.41095
4218,MERMAID BEACH,-28.045868,153.435141
4218,MERMAID WATERS,-28.047796,153.408899
4218,NOBBY BEACH,-28.058857,153.438258
4218,PACIFIC FAIR,-28.036526,153.428497
4218,Q SUPERCENTRE,-28.045869,153.407846
4219,WEST BURLEIGH,-28.107294,153.441839
4220,BURLEIGH HEADS,-28.088477,153.451921
4220,BURLEIGH TOWN,-28.097856,153.441027
4220,BURLEIGH WATERS,-28.095217,153.42702
4220,MIAMI,-28.074628,153.444805
4221,ELANORA,-28.135669,153.470481
4221,PALM BEACH,-28.120875,153.472569
4223,CURRUMBIN,-28.136289,153.477806
4223,CURRUMBIN VALLEY,-28.188189,153.420453
4223,CURRUMBIN WATERS,-28.138598,153.472473
4224,TUGUN,-28.143616,153.494865
4224,TUGUN HEIGHTS,-28.150752,153.482266
4225,BILINGA,-28.159935,153.510026
4225,COOLANGATTA,-28.168067,153.535326
4226,CLEAR ISLAND WATERS,-28.039318,153.401608
4226,MERRIMAC,-28.04809,153.359497
4226,ROBINA,-28.078134,153.389243
4227,REEDY CREEK,-28.108599,153.395621
4227,VARSITY LAKES,-28.089398,153.412201
4228,TALLEBUDGERA,-28.148226,153.421613
4228,TALLEBUDGERA VALLEY,-28.15264,153.38507
4229,BOND UNIVERSITY,-28.075709,153.414682
4230,ROBINA TOWN CENTRE,-28.077467,153.38531
4270,TAMBORINE,-27.880883,153.130246
4271,EAGLE HEIGHTS,-27.922442,153.207493
4272,MOUNT TAMBORINE,-27.947935,153.191359
4272,NORTH TAMBORINE,-27.92846,153.184483
4272,TAMBORINE MOUNTAIN,-27.905302,153.180047
4275,BENOBBLE,-27.995053,153.162089
4275,BIDDADDABA,-27.986736,153.110994
4275,BOYLAND,-27.942993,153.132839
4275,CANUNGRA,-28.017174,153.164715
4275,FERNY GLEN,-28.077377,153.161718
4275,FLYING FOX,-28.096773,153.172043
4275,ILLINBAH,-28.115254,153.142021
4275,LAMINGTON NATIONAL PARK,-28.245672,153.117289
4275,SARABAH,-28.126117,153.129287
4275,WITHEREN,-28.038223,153.182821
4275,WONGLEPONG,-27.97206,153.163307
4280,JIMBOOMBA,-27.831402,153.028469
4280,NORTH MACLEAN,-27.769943,153.002835
4280,SOUTH MACLEAN,-27.789738,153.006653
4280,STOCKLEIGH,-27.781535,153.057724
4285,ALLENVIEW,-27.901257,152.939081
4285,BEAUDESERT,-27.986322,152.99562
4285,BIRNAM,-27.956974,153.04993
4285,BROMELTON,-27.980083,152.957913
4285,CAINBABLE,-28.149819,153.096048
4285,CEDAR GROVE,-27.861267,152.980397
4285,CEDAR VALE,-27.87986,153.015694
4285,CHINGHEE CREEK,-28.27381,152.98247
4285,CHRISTMAS CREEK,-28.181245,152.989695
4285,CRYNA,-28.019842,152.990625
4285,DARLINGTON,-28.197185,153.041811
4285,GLENEAGLE,-27.932836,152.981138
4285,HILLVIEW,-28.21667,153.012467
4285,INNISPLAIN,-28.169766,152.911339
4285,JOSEPHVILLE,-28.038205,152.93612
4285,KAGARU,-27.84695,152.934351
4285,KERRY,-28.10903,153.030653
4285,KNAPP CREEK,-28.131716,152.819187
4285,KOORALBYN,-28.084504,152.84287
4285,LAMINGTON,-28.238062,152.996065
4285,LARAVALE,-28.087831,152.935893
4285,MOUNT GIPPS,-28.322421,152.995959
4285,MUNDOOLUN,-27.910582,153.089471
4285,NINDOOINBAH,-28.048739,153.047886
4285,OAKY CREEK,-28.202449,152.935939
4285,TABOOBA,-28.134167,152.961648
4285,TABRAGALBA,-28.009381,153.07862
4285,TAMROOKUM,-28.116994,152.917237
4285,TAMROOKUM CREEK,-28.166303,152.85555
4285,UNDULLAH,-27.822875,152.924256
4285,VERESDALE,-27.913012,152.984643
4285,VERESDALE SCRUB,-27.920646,153.01267
4285,WOODHILL,-27.890813,152.973623
4287,BARNEY VIEW,-28.260921,152.781251
4287,MOUNT BARNEY,-28.303855,152.715018
4287,MOUNT LINDESAY,-28.327187,152.721855
4287,PALEN CREEK,-28.263746,152.819284
4287,RATHDOWNEY,-28.210938,152.868157
4287,RUNNING CREEK,-28.264395,152.910542
4300,AUGUSTINE HEIGHTS,-27.669147,152.89354
4300,BELLBIRD PARK,-27.637214,152.883455
4300,BROOKWATER,-27.656026,152.891125
4300,CAMIRA,-27.634493,152.916039
4300,CAROLE PARK,-27.608168,152.933899
4300,GAILES,-27.610747,152.915838
4300,GOODNA,-27.609563,152.899255
4300,SPRINGFIELD,-27.674838,152.898929
4300,SPRINGFIELD LAKES,-27.670826,152.923608
4301,COLLINGWOOD PARK,-27.613211,152.863215
4301,REDBANK,-27.606009,152.869604
4301,REDBANK PLAINS,-27.646615,152.871619
4303,DINMORE,-27.597997,152.831683
4303,NEW CHUM,-27.613361,152.836335
4303,RIVERVIEW,-27.598519,152.846914
4304,BLACKSTONE,-27.62904,152.795901
4304,BOOVAL,-27.614359,152.788861
4304,BOOVAL FAIR,-27.615744,152.789849
4304,BUNDAMBA,-27.601599,152.814847
4304,EBBW VALE,-27.602774,152.82421
4304,NORTH BOOVAL,-27.607118,152.79014
4304,SILKSTONE,-27.623368,152.787346
4305,BASIN POCKET,-27.601066,152.772672
4305,BRASSALL,-27.59456,152.745895
4305,BREMER,-27.641707,152.75278
4305,CHURCHILL,-27.642272,152.750063
4305,COALFALLS,-27.605854,152.745119
4305,EAST IPSWICH,-27.6072,152.778139
4305,EASTERN HEIGHTS,-27.627472,152.771259
4305,FLINDERS VIEW,-27.652845,152.775924
4305,IPSWICH,-27.614604,152.760876
4305,LEICHHARDT,-27.62516,152.73664
4305,LIMESTONE RIDGES,-27.836825,152.727685
4305,MOORES POCKET,-27.60004,152.779012
4305,NEWTOWN,-27.61595,152.776417
4305,NORTH IPSWICH,-27.597511,152.762793
4305,NORTH TIVOLI,-27.575746,152.788563
4305,ONE MILE,-27.627224,152.743044
4305,RACEVIEW,-27.634299,152.774807
4305,SADLIERS CROSSING,-27.612897,152.743798
4305,TIVOLI,-27.593133,152.771177
4305,WEST IPSWICH,-27.618659,152.749514
4305,WOODEND,-27.607344,152.751559
4305,WULKURAKA,-27.618283,152.725522
4305,YAMANTO,-27.660386,152.739493
4306,AMBERLEY,-27.640431,152.702399
4306,AVOCA VALE,-26.755807,152.235564
4306,BANKS CREEK,-27.424103,152.705666
4306,BARELLAN POINT,-27.57364,152.842931
4306,BENARKIN,-26.887082,152.137759
4306,BENARKIN NORTH,-26.857155,152.15013
4306,BLACKBUTT,-26.88523,152.101065
4306,BLACKBUTT NORTH,-26.864303,152.112926
4306,BLACKBUTT SOUTH,-26.900112,152.098946
4306,BLACKSOIL,-27.577101,152.706785
4306,BORALLON,-27.497506,152.702995
4306,CHERRY CREEK,-26.929354,152.099732
4306,CHUWAR,-27.563424,152.78219
4306,COLINTON,-26.932451,152.328182
4306,DEEBING HEIGHTS,-27.687701,152.762112
4306,DUNDAS,-27.300337,152.674418
4306,ENGLAND CREEK,-27.377661,152.708316
4306,FAIRNEY VIEW,-27.484407,152.652395
4306,FERNVALE,-27.453445,152.650444
4306,GLAMORGAN VALE,-27.507731,152.639298
4306,GOOGA CREEK,-26.974164,152.011273
4306,GOOLMAN,-27.73684,152.760821
4306,HAIGSLEA,-27.570384,152.630755
4306,HARLIN,-26.971739,152.353834
4306,IRONBARK,-27.558063,152.671237
4306,KARALEE,-27.562833,152.825544
4306,KARANA DOWNS,-27.543598,152.824253
4306,KARRABIN,-27.604586,152.710107
4306,KHOLO,-27.52257,152.765742
4306,LAKE MANCHESTER,-27.482794,152.739404
4306,LARK HILL,-27.522004,152.599596
4306,LINVILLE,-26.8392,152.27475
4306,MOORE,-26.893651,152.289316
4306,MOUNT BINGA,-27.027545,151.921425
4306,MOUNT CROSBY,-27.540043,152.804494
4306,MOUNT MARROW,-27.603799,152.621302
4306,MOUNT STANLEY,-26.529308,152.225747
4306,MUIRLEA,-27.571127,152.741909
4306,NUKKU,-26.882514,152.069031
4306,PEAK CROSSING,-27.782485,152.729553
4306,PINE MOUNTAIN,-27.565633,152.707133
4306,PURGA,-27.660281,152.715928
4306,RIPLEY,-27.675442,152.78859
4306,SOUTH RIPLEY,-27.722528,152.822657
4306,SPLIT YARD CREEK,-27.371068,152.634973
4306,SWANBANK,-27.653306,152.823067
4306,TAROMEO,-26.873453,152.179063
4306,TEELAH,-26.797734,152.098897
4306,THAGOONA,-27.625257,152.630147
4306,VERNOR,-27.464345,152.610457
4306,WALLOON,-27.605574,152.663918
4306,WANORA,-27.519639,152.684003
4306,WHITE ROCK,-27.694065,152.850838
4306,WILLOWBANK,-27.685815,152.67611
4306,WIVENHOE POCKET,-27.454749,152.601231
4307,COLEYVILLE,-27.82052,152.56642
4307,HARRISVILLE,-27.81128,152.667696
4307,MUTDAPILLY,-27.771052,152.649922
4307,RADFORD,-27.854018,152.651674
4307,SILVERDALE,-27.892727,152.609094
4307,WARRILL VIEW,-27.824481,152.616046
4307,WILSONS PLAINS,-27.828532,152.648039
4309,ARATULA,-27.981456,152.548619
4309,CHARLWOOD,-28.000039,152.575971
4309,CLUMBER,-28.062236,152.459621
4309,FASSIFERN,-27.962506,152.578354
4309,FASSIFERN VALLEY,-27.975894,152.593919
4309,FRAZERVIEW,-27.950068,152.549111
4309,KALBAR,-27.940255,152.623589
4309,KENTS LAGOON,-27.899018,152.622138
4309,KULGUN,-27.932873,152.689052
4309,MILORA,-27.844878,152.686024
4309,MOOGERAH,-28.081948,152.524984
4309,MORWINCHA,-27.973208,152.579012
4309,MOUNT EDWARDS,-28.019948,152.517902
4309,MUNBILLA,-27.875305,152.659309
4309,OBUM OBUM,-27.912903,152.655215
4309,TAROME,-27.992503,152.480067
4309,TEVIOTVILLE,-27.949466,152.685283
4309,WASHPOOL,-27.835369,152.763824
4310,ALLANDALE,-27.997335,152.714213
4310,ANTHONY,-27.878177,152.684078
4310,BLANTYRE,-27.907601,152.68086
4310,BOONAH,-27.997228,152.681481
4310,BUNBURRA,-28.064432,152.687878
4310,BUNJURGEN,-28.03997,152.61673
4310,BURNETT CREEK,-28.26727,152.570815
4310,CANNON CREEK,-28.071862,152.728899
4310,CARNEYS CREEK,-28.232625,152.560846
4310,COOCHIN,-28.095845,152.645962
4310,COULSON,-27.949976,152.722912
4310,CROFTBY,-28.139168,152.573333
4310,DUGANDAN,-28.016403,152.664577
4310,FRENCHES CREEK,-28.022785,152.634289
4310,HOYA,-27.976695,152.688079
4310,KENTS POCKET,-27.992539,152.653668
4310,MAROON,-28.172892,152.715724
4310,MILBONG,-27.885582,152.739256
4310,MILFORD,-28.025765,152.711811
4310,MOUNT ALFORD,-28.069068,152.594741
4310,MOUNT FRENCH,-28.001422,152.622839
4310,ROADVALE,-27.91628,152.678512
4310,TEMPLIN,-27.978268,152.656141
4310,WALLACES CREEK,-28.086348,152.65317
4310,WOOLOOMAN,-27.879993,152.777879
4310,WYARALONG,-27.925254,152.770793
4311,ATKINSONS DAM,-27.421011,152.455509
4311,BRIGHTVIEW,-27.49908,152.496839
4311,BUARABA,-27.369731,152.320374
4311,BUARABA SOUTH,-27.40733,152.234328
4311,CHURCHABLE,-27.425418,152.375274
4311,CLARENDON,-27.440645,152.547935
4311,COOLANA,-27.517984,152.552393
4311,COOMINYA,-27.391308,152.502211
4311,LOCKYER WATERS,-27.453972,152.40419
4311,LOWOOD,-27.462901,152.580533
4311,MINDEN,-27.548357,152.541342
4311,MOUNT TARAMPA,-27.464748,152.498699
4311,PATRICK ESTATE,-27.418541,152.582671
4311,PRENZLAU,-27.533836,152.514892
4311,RIFLE RANGE,-27.459673,152.530558
4311,TARAMPA,-27.478738,152.548676
4311,WIVENHOE HILL,-27.374874,152.554888
4312,BRYDEN,-27.269163,152.585337
4312,CABOONBAH,-27.141566,152.499727
4312,COAL CREEK,-27.177942,152.446181
4312,CROSSDALE,-27.187799,152.52683
4312,ESK,-27.240421,152.421957
4312,ESKDALE,-27.155571,152.229
4312,GLEN ESK,-27.251246,152.452949
4312,MOOMBRA,-27.292792,152.512285
4312,MOUNT BYRON,-27.141726,152.650724
4312,MOUNT HALLEN,-27.311451,152.411546
4312,MURRUMBA,-27.195577,152.462296
4312,REDBANK CREEK,-27.286186,152.303935
4312,SOMERSET DAM,-27.116432,152.553552
4313,BIARRA,-27.163924,152.327655
4313,BRAEMORE,-27.048687,152.389051
4313,COOEEIMBARDI,-27.110472,152.486797
4313,CRESSBROOK,-27.09275,152.442327
4313,FULHAM,-27.054991,152.452869
4313,GREGORS CREEK,-26.960923,152.443153
4313,IVORY CREEK,-27.036445,152.338913
4313,LOWER CRESSBROOK,-27.081488,152.476665
4313,MOUNT BEPPO,-27.133336,152.452846
4313,OTTABA,-27.14171,152.387349
4313,SCRUB CREEK,-27.031117,152.427722
4313,TOOGOOLAWAH,-27.087686,152.3749
4313,YIMBUN,-27.018117,152.368448
4340,ASHWELL,-27.628455,152.560103
4340,CALVERT,-27.662777,152.516008
4340,EBENEZER,-27.663343,152.635067
4340,GRANDCHESTER,-27.660536,152.464438
4340,JEEBROPILLY,-27.645932,152.655261
4340,LANEFIELD,-27.647166,152.555186
4340,LOWER MOUNT WALKER,-27.69967,152.533431
4340,MERRYVALE,-27.803261,152.500686
4340,MOORANG,-27.91605,152.472317
4340,MOUNT FORBES,-27.74782,152.613984
4340,MOUNT MORT,-27.800998,152.443717
4340,MOUNT WALKER,-27.772612,152.536369
4340,MOUNT WALKER WEST,-27.775884,152.509375
4340,ROSEVALE,-27.864183,152.476884
4340,ROSEWOOD,-27.637624,152.591619
4340,TALLEGALLA,-27.574249,152.547338
4340,THE BLUFF,-27.614939,152.534147
4340,WOOLSHED,-27.590113,152.508573
4341,BLENHEIM,-27.653658,152.326898
4341,HATTON VALE,-27.567415,152.461251
4341,KENSINGTON GROVE,-27.535731,152.465335
4341,KENTVILLE,-27.478998,152.42789
4341,LAIDLEY,-27.629565,152.394182
4341,LAIDLEY CREEK WEST,-27.669739,152.358477
4341,LAIDLEY HEIGHTS,-27.62463,152.377598
4341,LAIDLEY NORTH,-27.615938,152.397899
4341,LAIDLEY SOUTH,-27.653053,152.390959
4341,MOUNT BERRYMAN,-27.718699,152.328882
4341,MULGOWIE,-27.727771,152.364894
4341,PLAINLAND,-27.565012,152.42314
4341,REGENCY DOWNS,-27.53146,152.441681
4341,SUMMERHOLM,-27.638127,152.451503
4341,THORNTON,-27.827371,152.381439
4341,TOWNSON,-27.873021,152.387828
4342,CROWLEY VALE,-27.543847,152.377687
4342,FOREST HILL,-27.590129,152.356626
4342,GLEN CAIRN,-27.607251,152.326226
4342,GLENORE GROVE,-27.53,152.407191
4342,LOCKROSE,-27.494515,152.465117
4342,LYNFORD,-27.481208,152.449284
4343,ADARE,-27.511922,152.296235
4343,BLACK DUCK CREEK,-27.898343,152.212438
4343,CAFFEY,-27.69593,152.215408
4343,COLLEGE VIEW,-27.5437,152.352512
4343,EAST HALDON,-27.885289,152.244214
4343,FORDSDALE,-27.708961,152.128334
4343,GATTON,-27.555979,152.279722
4343,INGOLDSBY,-27.720891,152.259565
4343,JUNCTION VIEW,-27.796746,152.18854
4343,LAKE CLARENDON,-27.521145,152.357068
4343,LAWES,-27.560255,152.332138
4343,LEFTHAND BRANCH,-27.790036,152.262492
4343,LOWER TENTHILL,-27.611965,152.23155
4343,MORTON VALE,-27.486888,152.389219
4343,MOUNT SYLVIA,-27.728603,152.220887
4343,PLACID HILLS,-27.561472,152.224441
4343,RINGWOOD,-27.517791,152.233475
4343,ROCKSIDE,-27.684947,152.276051
4343,ROPELEY,-27.660007,152.26042
4343,SPRING CREEK,-27.457675,152.340032
4343,UPPER TENTHILL,-27.656829,152.220967
4343,VINEGAR HILL,-27.478065,152.218024
4343,WOODBINE,-27.778021,152.193227
4343,WOODLANDS,-27.611619,152.281024
4344,CARPENDALE,-27.589099,152.153257
4344,EGYPT,-27.679245,152.101994
4344,FLAGSTONE CREEK,-27.61907,152.101942
4344,HELIDON,-27.549622,152.123725
4344,HELIDON SPA,-27.542122,152.089711
4344,LILYDALE,-27.600246,152.134517
4344,LOCKYER,-27.515118,152.084182
4344,ROCKMOUNT,-27.67548,152.036928
4344,SEVENTEEN MILE,-27.449668,152.187609
4344,SILVER RIDGE,-27.60868,152.021797
4344,STOCKYARD,-27.633403,152.064664
4344,UPPER FLAGSTONE,-27.630512,152.000675
4345,GATTON COLLEGE,-27.549094,152.336382
4346,MARBURG,-27.56311,152.588618
4347,GRANTHAM,-27.574836,152.204914
4347,MA MA CREEK,-27.632109,152.187493
4347,MOUNT WHITESTONE,-27.685163,152.147134
4347,VERADILLA,-27.592362,152.184734
4347,WINWILL,-27.607316,152.209477
4350,ATHOL,-27.615354,151.774846
4350,BLUE MOUNTAIN HEIGHTS,-27.505231,151.955955
4350,CENTENARY HEIGHTS,-27.580357,151.964525
4350,CHARLTON,-27.519944,151.848621
4350,CLIFFORD GARDENS,-27.564841,151.932192
4350,COTSWOLD HILLS,-27.527826,151.898733
4350,CRANLEY,-27.515537,151.922073
4350,DARLING HEIGHTS,-27.59912,151.92536
4350,DRAYTON,-27.600764,151.914462
4350,DRAYTON NORTH,-27.58949,151.915946
4350,EAST TOOWOOMBA,-27.57203,151.977083
4350,FINNIE,-27.630528,151.892015
4350,GLENVALE,-27.571612,151.9053
4350,GOWRIE MOUNTAIN,-27.512574,151.820252
4350,HARLAXTON,-27.530174,151.957038
4350,HARRISTOWN,-27.574193,151.927297
4350,KEARNEYS SPRING,-27.600115,151.943728
4350,MIDDLE RIDGE,-27.603488,151.968261
4350,MOUNT KYNOCH,-27.512441,151.953361
4350,MOUNT LOFTY,-27.544159,151.969215
4350,MOUNT RASCAL,-27.635267,151.913198
4350,NEWTOWN,-27.549351,151.938385
4350,NORTH TOOWOOMBA,-27.542931,151.960745
4350,NORTHLANDS,-27.54367,151.961286
4350,PRINCE HENRY HEIGHTS,-27.553313,151.986981
4350,RANGEVILLE,-27.58309,151.984707
4350,REDWOOD,-27.569795,151.982368
4350,ROCKVILLE,-27.533947,151.932693
4350,SOUTH TOOWOOMBA,-27.591745,151.937777
4350,TOOWOOMBA,-27.561302,151.955505
4350,TOOWOOMBA CITY,-27.580223,151.943937
4350,TOOWOOMBA EAST,-27.57203,151.977083
4350,TOOWOOMBA SOUTH,-27.591745,151.937777
4350,TOOWOOMBA VILLAGE FAIR,-27.561066,151.951557
4350,TOOWOOMBA WEST,-27.560391,151.936752
4350,TOP CAMP,-27.635007,151.938089
4350,TORRINGTON,-27.546042,151.892792
4350,WELLCAMP,-27.549373,151.851954
4350,WESTBROOK,-27.614908,151.847298
4350,WILSONTON,-27.543746,151.923459
4350,WILSONTON HEIGHTS,-27.540134,151.924148
4350,WYALLA PLAZA,-27.553248,151.920106
4352,AMIENS,-28.583622,151.801093
4352,BALLARD,-27.489628,151.967058
4352,BAPAUME,-28.566381,151.829047
4352,BIRNAM,-27.48897,151.92236
4352,BLANCHVIEW,-27.569556,152.038086
4352,BRANCHVIEW,-27.611057,151.33576
4352,CABARLAH,-27.424504,151.992604
4352,CAWDOR,-27.463119,151.906431
4352,CEMENT MILLS,-28.332675,151.504945
4352,COALBANK,-27.113515,151.867636
4352,CONDAMINE PLAINS,-27.708947,151.325351
4352,CUTELLA,-27.451914,151.819991
4352,DERRYMORE,-27.599999,152.050144
4352,DJUAN,-27.180114,151.921977
4352,DOCTOR CREEK,-27.189361,151.813899
4352,EVERGREEN,-27.157726,151.727629
4352,FIFTEEN MILE,-27.41455,152.069015
4352,GEHAM,-27.391346,151.999063
4352,GLENCOE,-27.471602,151.874365
4352,GORE,-28.299174,151.486758
4352,GOWRIE JUNCTION,-27.47966,151.819328
4352,GOWRIE LITTLE PLAIN,-27.424954,151.85689
4352,GRAPETREE,-27.309769,152.075639
4352,GROOMSVILLE,-27.313594,151.965367
4352,HIGHFIELDS,-27.463969,151.953927
4352,HIGHGROVE,-27.109966,151.777698
4352,HODGSON VALE,-27.665342,151.949224
4352,IREDALE,-27.577623,152.107319
4352,KARARA,-28.206451,151.570214
4352,KLEINTON,-27.433808,151.948927
4352,KULPI,-27.188096,151.702434
4352,KURROWAH,-27.697888,151.192493
4352,LILYVALE,-27.427544,151.87518
4352,LYRA,-28.830661,151.854844
4352,MACLAGAN,-27.084007,151.634354
4352,MALLING,-27.068227,151.591
4352,MERINGANDAN,-27.426584,151.913829
4352,MERINGANDAN WEST,-27.425799,151.900725
4352,MERRITTS CREEK,-27.351633,152.032446
4352,MOUNT LUKE,-27.390603,152.039221
4352,MUNIGANEEN,-27.368404,151.873859
4352,MURPHYS CREEK,-27.464319,152.060328
4352,NARKO,-27.109186,151.701239
4352,NORTH MACLAGAN,-27.027367,151.700178
4352,NUTGROVE,-27.050876,151.760997
4352,OMAN AMA,-28.422379,151.335247
4352,PALMTREE,-27.395097,152.112345
4352,PAMPAS,-27.789765,151.413773
4352,PECHEY,-27.307526,152.045104
4352,PERANGA,-27.143526,151.695399
4352,PERSEVERANCE,-27.371803,152.106607
4352,POSTMANS RIDGE,-27.533973,152.065661
4352,POZIERES,-28.533671,151.880451
4352,PRESTON,-27.647146,151.976332
4352,RAMSAY,-27.720013,151.944211
4352,RANGEMORE,-26.988415,151.668484
4352,RAVENSBOURNE,-27.360862,152.162879
4352,SEVERNLEA,-28.699851,151.905795
4352,SPRING BLUFF,-27.463467,151.977781
4352,ST AUBYN,-27.088345,151.915296
4352,THORNVILLE,-27.063415,151.84564
4352,TUMMAVILLE,-27.872395,151.50638
4352,UMBIRAM,-27.662084,151.771814
4352,UPPER LOCKYER,-27.486583,152.074463
4352,WHICHELLO,-27.300265,152.011866
4352,WHITE MOUNTAIN,-27.453455,152.100318
4352,WITHCOTT,-27.549649,152.036357
4352,WOODLEIGH,-27.086617,151.680829
4352,WOOLMER,-27.449517,151.92044
4352,WUTUL,-27.028356,151.808816
4352,WYREEMA,-27.656125,151.855013
4352,YALANGUR,-27.416424,151.82906
4352,YANDILLA,-27.835957,151.364715
4353,BERGEN,-27.256984,151.904578
4353,EAST COOYAR,-27.044775,151.862386
4353,HADEN,-27.222714,151.886128
4354,DOUGLAS,-27.322474,151.909698
4354,GOOMBUNGEE,-27.307336,151.851362
4354,KILBIRNIE,-27.209355,151.829918
4355,ANDURAMBA,-27.134613,152.085883
4355,CRESSBROOK CREEK,-27.242767,152.146304
4355,CROWS NEST,-27.262026,152.055416
4355,EMU CREEK,-27.040904,151.994094
4355,JONES GULLY,-27.181723,152.017355
4355,MOUNTAIN CAMP,-27.206483,152.034898
4355,PIERCES CREEK,-27.145143,152.015356
4355,PINELANDS,-27.229883,152.011076
4355,PLAINBY,-27.280834,151.966677
4355,THE BLUFF,-27.202707,152.145544
4355,UPPER PINELANDS,-27.204094,151.953556
4356,BONGEEN,-27.567709,151.446802
4356,BROXBURN,-27.707086,151.674469
4356,EVANSLEA,-27.532026,151.522957
4356,IRONGATE,-27.626106,151.516737
4356,KINCORA,-27.823585,151.575988
4356,LINTHORPE,-27.597626,151.626235
4356,MOTLEY,-27.551756,151.615439
4356,MOUNT TYSON,-27.574946,151.570197
4356,NORTH BRANCH,-27.808745,151.635157
4356,NORWIN,-27.557067,151.380712
4356,PITTSWORTH,-27.715903,151.634357
4356,PURRAWUNDA,-27.518226,151.611125
4356,ROSSVALE,-27.631066,151.577066
4356,SCRUBBY MOUNTAIN,-27.769155,151.585017
4356,SPRINGSIDE,-27.671517,151.579532
4356,ST HELENS,-27.682306,151.455739
4356,STONELEIGH,-27.636595,151.623716
4356,YARRANLEA,-27.724306,151.531078
4357,BRINGALILY,-28.056801,151.160021
4357,BULLI CREEK,-27.98346,150.826261
4357,CANNING CREEK,-28.229377,151.154059
4357,CAPTAINS MOUNTAIN,-27.922228,151.170586
4357,CLONTARF,-27.972007,151.243746
4357,CONDAMINE FARMS,-27.94891,150.969019
4357,CYPRESS GARDENS,-27.971179,150.998463
4357,DOMVILLE,-27.929737,151.276845
4357,FOREST RIDGE,-27.960668,151.028319
4357,GRAYS GATE,-27.966637,151.290385
4357,KOOROONGARRA,-28.105007,151.252072
4357,LAVELLE,-28.003047,151.285585
4357,LEMONTREE,-27.782807,151.305652
4357,MILLMERRAN,-27.873377,151.271319
4357,MILLMERRAN DOWNS,-27.977829,151.091151
4357,MILLMERRAN WOODS,-28.014689,151.044484
4357,MILLWOOD,-28.022599,151.201646
4357,MOUNT EMLYN,-28.036797,151.284466
4357,PUNCHS CREEK,-27.993966,151.391243
4357,ROCKY CREEK,-28.042856,151.336295
4357,THE PINES,-27.97618,150.957829
4357,TURALLIN,-27.826662,151.202997
4357,WATTLE RIDGE,-27.996039,150.995279
4357,WESTERN CREEK,-27.827909,151.103035
4357,WOONDUL,-28.108468,151.088309
4358,CAMBOOYA,-27.706725,151.863738
4358,FELTON,-27.829123,151.808215
4358,FELTON SOUTH,-27.857228,151.731324
4358,VALE VIEW,-27.651199,151.892372
4359,BUDGEE,-27.785112,152.020111
4359,GREENMOUNT,-27.777322,151.942115
4359,GREENMOUNT EAST,-27.774693,151.940842
4359,HIRSTGLEN,-27.826953,152.100925
4359,WEST HALDON,-27.792194,152.10177
4360,NOBBY,-27.838719,151.889972
4361,BACK PLAINS,-27.894403,151.799775
4361,CLIFTON,-27.931214,151.905759
4361,ELLANGOWAN,-27.944214,151.680091
4361,ELPHINSTONE,-27.969655,151.896863
4361,HEADINGTON HILL,-27.91075,152.044627
4361,KINGS CREEK,-27.897814,151.907495
4361,MANAPOURI,-27.858488,152.021891
4361,MISSEN FLAT,-27.904202,151.949743
4361,MOUNT MOLAR,-27.902343,151.863988
4361,NEVILTON,-27.879432,151.969566
4361,PILTON,-27.866572,152.048114
4361,RYEFORD,-27.940943,151.808329
4361,SANDY CAMP,-27.969067,151.786427
4361,SPRING CREEK,-27.949382,151.992713
4361,UPPER PILTON,-27.917514,152.107082
4361,VICTORIA HILL,-28.024943,151.801947
4362,ALLORA,-28.035848,151.982723
4362,BERAT,-28.04618,152.055603
4362,DEUCHAR,-28.108249,151.959675
4362,ELLINTHORP,-28.049572,151.921015
4362,GOOMBURRA,-28.044874,152.120916
4362,HENDON,-28.076315,151.950757
4362,MOUNT MARSHALL,-28.080092,152.032942
4362,TALGAI,-28.038022,151.898956
4363,SOUTHBROOK,-27.676647,151.739695
4364,BROOKSTEAD,-27.710492,151.396183
4365,LEYBURN,-28.017149,151.597527
4370,ALLAN,-28.195568,151.949533
4370,BONY MOUNTAIN,-28.133262,151.835157
4370,CANNINGVALE,-28.246876,152.073729
4370,CHERRY GULLY,-28.41323,152.053737
4370,CLINTONVALE,-28.088684,152.091105
4370,CUNNINGHAM,-28.167753,151.815311
4370,DANDEROO,-28.268505,152.233757
4370,ELBOW VALLEY,-28.37857,152.136105
4370,FREESTONE,-28.128997,152.133927
4370,GLADFIELD,-28.074743,152.184405
4370,GLENGALLAN,-28.10877,152.057892
4370,GREYMARE,-28.174323,151.761579
4370,JUNABEE,-28.245064,152.169749
4370,LESLIE,-28.172373,151.917348
4370,LESLIE DAM,-28.247228,151.900103
4370,LOCH LOMOND,-28.304257,152.180094
4370,MARYVALE,-28.072182,152.239088
4370,MASSIE,-28.13718,151.960156
4370,MONTROSE,-28.178803,151.778422
4370,MORGAN PARK,-28.257039,152.048933
4370,MOUNT COLLIERY,-28.285794,152.28593
4370,MOUNT TABOR,-28.211411,152.06982
4370,MURRAYS BRIDGE,-28.328929,152.117526
4370,NORTH BRANCH,-28.042867,152.249795
4370,PRATTEN,-28.085413,151.781018
4370,RODGERS CREEK,-28.184562,151.817078
4370,ROSEHILL,-28.183703,151.991529
4370,ROSENTHAL HEIGHTS,-28.259161,152.015977
4370,SILVERWOOD,-28.38873,152.010477
4370,SLADEVALE,-28.176456,152.087025
4370,SWAN CREEK,-28.193496,152.129558
4370,THANE,-28.161964,151.69805
4370,THANES CREEK,-28.104434,151.65306
4370,THE GLEN,-28.289311,151.9449
4370,THE HERMITAGE,-28.206899,152.098734
4370,TOOLBURRA,-28.162712,151.966508
4370,TREGONY,-28.061929,152.348861
4370,UPPER FREESTONE,-28.13838,152.193997
4370,UPPER WHEATVALE,-28.136179,151.88002
4370,WARWICK,-28.21652,152.034953
4370,WHEATVALE,-28.163682,151.867017
4370,WILDASH,-28.313966,152.056372
4370,WILLOWVALE,-28.122066,152.008529
4370,WIYARRA,-28.27747,152.232782
4370,WOMINA,-28.190571,152.046255
4371,EMU VALE,-28.230733,152.245531
4371,SWANFELS,-28.176528,152.266305
4371,YANGAN,-28.196305,152.210023
4372,TANNYMOREL,-28.303067,152.233089
4373,KILLARNEY,-28.340099,152.294194
4373,THE FALLS,-28.339208,152.38413
4373,THE HEAD,-28.275028,152.446698
4374,DALVEEN,-28.488431,151.968689
4375,COTTONVALE,-28.529507,151.947124
4375,FLEURBAIX,-28.538251,151.899604
4376,THULIMBAH,-28.541494,151.933783
4377,GLEN NIVEN,-28.580891,151.97341
4377,THE SUMMIT,-28.576721,151.94809
4378,APPLETHORPE,-28.613948,151.955491
4380,BROADWATER,-28.614072,151.903705
4380,CANNON CREEK,-28.071862,152.728899
4380,DALCOUTH,-28.649034,151.979491
4380,EUKEY,-28.7658,151.982445
4380,GLENLYON,-28.636366,151.915483
4380,GREENLANDS,-28.657182,151.791337
4380,KYOOMBA,-28.686211,151.960921
4380,MINGOOLA,-28.858007,151.179574
4380,MOUNT TULLY,-28.737141,151.953142
4380,NUNDUBBERMERE,-28.718472,151.772424
4380,PIKEDALE,-28.646929,151.617928
4380,SPRINGDALE,-28.671767,151.728195
4380,STANTHORPE,-28.655784,151.933881
4380,STORM KING,-28.72599,151.981921
4380,SUGARLOAF,-28.696,152.03985
4380,THORNDALE,-28.693731,151.853063
4381,GLEN APLIN,-28.739941,151.874983
4382,BALLANDEAN,-28.798985,151.842238
4382,GIRRAWEEN,-28.826931,151.951533
4382,SOMME,-28.754602,151.816034
4382,WYBERBA,-28.862784,151.867425
4383,WALLANGARRA,-28.882394,151.910698
4384,LIMEVALE,-28.728006,151.183208
4385,BEEBO,-28.722738,150.967237
4385,BONSHAW,-29.050296,151.275344
4385,GLENARBON,-28.660778,150.842509
4385,MAIDENHEAD,-29.140441,151.38356
4385,RIVERTON,-29.064236,151.484856
4385,SILVER SPUR,-28.863823,151.277716
4385,SMITHLEA,-28.808137,151.046597
4385,TEXAS,-28.871596,151.163669
4385,WATSONS CROSSING,-29.120687,151.315348
4387,BRUSH CREEK,-28.606093,151.126671
4387,BYBERA,-28.28037,150.886064
4387,COOLMUNDA,-28.408356,151.21289
4387,GREENUP,-28.493536,151.306073
4387,INGLEWOOD,-28.414838,151.081895
4387,MOSQUITO CREEK,-28.232196,151.274358
4387,TERRICA,-28.545554,151.511147
4387,WARROO,-28.537885,151.3545
4387,WHETSTONE,-28.493358,150.912096
4388,KURUMBUL,-28.615672,150.554538
4388,YELARBON,-28.57187,150.752675
4390,BILLA BILLA,-28.145163,150.288342
4390,CALINGUNEE,-27.986113,150.3364
4390,CALLANDOON,-28.496505,150.104923
4390,GOODAR,-28.242074,150.117975
4390,GOONDIWINDI,-28.547015,150.307699
4390,KINDON,-28.08388,150.738804
4390,LUNDAVRA,-28.079525,149.978965
4390,WONDALLI,-28.379999,150.609374
4390,WYAGA,-28.20612,150.705292
4390,YAGABURNE,-28.101902,150.492548
4400,KINGSTHORPE,-27.495768,151.796847
4401,ACLAND,-27.303702,151.691102
4401,AUBIGNY,-27.522226,151.641744
4401,BALGOWAN,-27.247876,151.695191
4401,BIDDESTON,-27.558125,151.733967
4401,BOODUA,-27.371525,151.81437
4401,DEVON PARK,-27.351806,151.660312
4401,GREENWOOD,-27.322775,151.731201
4401,HIGHLAND PLAINS,-27.286555,151.74909
4401,KELVINHAUGH,-27.403155,151.776611
4401,MOUNT IRVING,-27.506406,151.584645
4401,MULDU,-27.273616,151.686401
4401,OAKEY,-27.43327,151.720926
4401,ROSALIE PLAINS,-27.220046,151.691664
4401,SABINE,-27.349026,151.709471
4401,SILVERLEIGH,-27.318215,151.77754
4401,YARGULLEN,-27.508276,151.627544
4402,COOYAR,-26.983086,151.832336
4402,KOORALGIN,-26.937815,151.945683
4402,UPPER COOYAR CREEK,-26.972666,151.726947
4403,BRYMAROO,-27.217717,151.591852
4403,JONDARYAN,-27.368691,151.592566
4403,MALU,-27.307626,151.618703
4403,MOUNT MORIAH,-27.475617,151.472997
4403,QUINALOW,-27.106177,151.62129
4403,WEST PRAIRIE,-27.441067,151.401958
4404,BOWENVILLE,-27.305817,151.490518
4404,FORMARTIN,-27.393947,151.409607
4404,IRVINGDALE,-27.198757,151.512627
4404,WAINUI,-27.32719,151.454156
4405,BLAXLAND,-27.192428,151.396625
4405,BUNYA MOUNTAINS,-26.890118,151.51041
4405,DALBY,-27.183495,151.263463
4405,DUCKLO,-27.272241,151.031145
4405,GRASSDALE,-27.415025,151.139048
4405,MARMADUA,-27.483611,150.730128
4405,PIRRINUAN,-27.026859,151.236215
4405,RANGES BRIDGE,-27.163869,151.06938
4405,ST RUTH,-27.391318,151.309238
4405,TIPTON,-27.429698,151.25919
4405,WERANGA,-27.301803,150.719781
4406,BOONDANDILLA,-27.894641,150.596584
4406,HANNAFORD,-27.352694,150.058918
4406,JIMBOUR,-26.95968,151.214889
4406,KAIMKILLENBUN,-27.060968,151.433893
4406,KOGAN,-27.040883,150.762768
4406,MACALISTER,-27.04409,151.076888
4406,MOONIE,-27.716362,150.369546
4406,SOUTHWOOD,-27.761291,149.978553
4406,THE GUMS,-27.343527,150.18745
4406,WEIR RIVER,-27.701391,150.546593
4407,CATTLE CREEK,-27.6483,150.836678
4407,CECIL PLAINS,-27.530341,151.190935
4407,DUNMORE,-27.654751,150.916106
4407,NANGWEE,-27.545088,151.2921
4408,BELL,-26.93254,151.448511
4410,JANDOWAE,-26.781197,151.109816
4411,WARRA,-26.929329,150.919183
4412,BRIGALOW,-26.843852,150.790571
4413,BAKING BOARD,-26.706834,150.545144
4413,BOONARGA,-26.797524,150.718956
4413,BURNCLUITH,-26.629502,150.70388
4413,CANAGA,-26.673531,150.921307
4413,CHANCES PLAIN,-26.748102,150.726241
4413,CHINCHILLA,-26.739588,150.625049
4413,DURAH,-26.287201,150.969093
4413,HOPELAND,-26.885423,150.641983
4413,MONTROSE,-27.018942,150.629815
4413,WIEAMBILLA,-26.992625,150.496152
4415,COLUMBOOLA,-26.672867,150.332141
4415,DALWOGAN,-26.571329,150.150533
4415,GURULMUNDI,-26.418055,150.05253
4415,HOOKSWOOD,-26.516274,150.270437
4415,KOWGURAN,-26.512855,150.09879
4415,MILES,-26.658062,150.184615
4415,MYALL PARK,-26.578685,150.181979
4415,PELHAM,-26.408864,150.373024
4416,BARRAMORNIE,-27.013259,150.060549
4416,CONDAMINE,-26.926401,150.131891
4416,MORABY,-26.924598,149.781738
4416,NANGRAM,-26.883557,150.334683
4416,PINE HILLS,-26.90893,149.915697
4416,SUNNYSIDE,-27.05029,149.948474
4416,YULABILLA,-27.059751,149.702065
4417,NOORINDOO,-27.15617,149.158851
4417,OBERINA,-27.008192,148.898154
4417,PARKNOOK,-27.289632,149.348951
4417,SURAT,-27.152561,149.070451
4417,WARKON,-26.891629,149.419553
4417,WELLESLEY,-27.355137,148.890121
4417,WERIBONE,-27.204458,148.871218
4418,GULUGUBA,-26.260063,150.048929
4419,COCKATOO,-25.72569,150.28164
4419,GROSMONT,-25.941881,149.901071
4419,WANDOAN,-26.121055,149.961422
4420,BROADMERE,-25.494713,149.525293
4420,COORADA,-25.019688,149.510196
4420,GHINGHINDA,-25.100966,149.731106
4420,GLENHAUGHTON,-25.357162,149.362244
4420,GWAMBEGWINE,-25.346286,149.669169
4420,HORNET BANK,-25.756487,149.407887
4420,PEEK-A-DOO,-25.911753,149.479387
4420,SPRING CREEK,-25.531649,150.140321
4420,TAROOM,-25.640429,149.798475
4421,GORANBA,-27.285342,150.599138
4421,TARA,-27.277093,150.459701
4422,COOMRITH,-27.562837,149.612212
4422,FLINTON,-27.741932,149.597353
4422,INGLESTONE,-27.667768,149.828433
4422,MEANDARRA,-27.305492,149.864465
4422,WESTMAR,-27.555898,151.917383
4423,GLENMORGAN,-27.249625,149.679008
4423,TEELBA,-27.43825,149.382341
4424,DRILLHAM,-26.640357,149.982992
4424,DRILLHAM SOUTH,-26.771467,150.012663
4424,GLENAUBYN,-26.505436,149.919393
4425,BOGANDILLA,-26.517858,149.783594
4425,DULACCA,-26.643938,149.761053
4426,JACKSON,-26.642228,149.623168
4426,JACKSON NORTH,-26.528719,149.641997
4426,JACKSON SOUTH,-26.68003,149.621468
4427,CLIFFORD,-26.128626,149.367449
4427,YULEBA,-26.611551,149.378812
4427,YULEBA NORTH,-26.57937,149.395271
4427,YULEBA SOUTH,-26.67759,149.335452
4428,PICKANJINNIE,-26.58117,149.114285
4428,WALLUMBILLA,-26.58704,149.186312
4428,WALLUMBILLA NORTH,-26.5159,149.197033
4428,WALLUMBILLA SOUTH,-26.650569,149.227164
4454,BAFFLE WEST,-25.724492,148.672028
4454,BEILBA,-25.530799,148.771152
4454,DURHAM DOWNS,-26.083509,149.067542
4454,HIGHLAND PLAINS,-25.82298,148.766765
4454,HUTTON CREEK,-25.690542,148.518737
4454,INJUNE,-25.84313,148.56619
4454,MOUNT HUTTON,-25.921102,148.39319
4454,PONY HILLS,-25.823447,149.045282
4454,SIMMIE,-25.758912,148.654745
4454,UPPER DAWSON,-25.411517,148.636603
4454,WESTGROVE,-25.58487,148.478915
4455,BALLAROO,-27.116299,148.616963
4455,BLYTHDALE,-26.580161,148.959187
4455,BUNGEWORGORAI,-26.59096,148.680386
4455,BUNGIL,-26.634082,148.76732
4455,BYMOUNT,-26.081763,148.544029
4455,CORNWALL,-26.180064,148.420101
4455,DARGAL ROAD,-26.549493,148.71723
4455,EUMAMURRIN,-26.156521,148.657503
4455,EUTHULLA,-26.491283,148.66563
4455,GUNNEWIN,-25.989773,148.558988
4455,HODGSON,-26.578833,148.621352
4455,MOOGA,-26.354001,149.011914
4455,MOUNT ABUNDANCE,-26.759261,148.423537
4455,MOUNT BINDANGO,-26.422217,148.397419
4455,ORALLO,-26.270043,148.542531
4455,ORANGE HILL,-26.48817,148.795724
4455,ROMA,-26.573907,148.790592
4455,TINGUN,-26.743971,148.914409
4455,WYCOMBE,-27.601674,148.698765
4461,MUCKADILLA,-26.602637,148.363184
4462,AMBY,-26.549209,148.186897
4465,DUNKELD,-26.968591,148.062548
4465,FORESTVALE,-25.924661,147.86951
4465,MITCHELL,-26.487734,147.974992
4465,V GATE,-26.995917,147.624919
4465,WOMALILLA,-26.500615,147.818673
4467,MUNGALLALA,-26.446905,147.543855
4467,REDFORD,-25.824795,147.399923
4467,TYRCONNEL,-26.423001,147.541299
4468,CLARA CREEK,-26.087266,146.833194
4468,MORVEN,-26.415822,147.112706
4470,BAKERS BEND,-26.647239,146.176789
4470,CHARLEVILLE,-26.401636,146.238329
4470,GOWRIE STATION,-26.084973,146.414653
4470,LANGLO,-26.226626,145.994288
4470,MURWEH,-26.948164,146.038048
4470,RIVERSLEIGH,-26.676938,146.32546
4471,CLAVERTON,-27.37093,145.959624
4471,NARDOO SIDING,-27.794089,145.872384
4472,BLACKALL,-24.424637,145.465854
4472,MOUNT ENNISKILLEN,-24.713098,146.012894
4474,ADAVALE,-25.909385,144.598632
4475,CHEEPIE,-26.630652,145.01525
4477,AUGATHELLA,-25.794685,146.586608
4477,UPPER WARREGO,-25.067174,147.251664
4478,BAYRICK,-25.479054,146.011909
4478,CALDERVALE,-25.105912,146.818423
4478,LANSDOWNE,-25.06012,146.25005
4478,LUMEAH,-25.340522,145.737033
4478,MACFARLANE,-24.849426,146.021197
4478,MINNIE DOWNS,-25.042029,145.869101
4478,SCRUBBY CREEK,-25.541515,145.664242
4478,TAMBO,-24.884467,146.253211
4478,WINDEYER,-24.54363,146.372079
4478,YANDARLO,-25.16696,146.494846
4479,COOLADDI,-26.645522,145.460966
4480,EROMANGA,-26.668654,143.267376
4480,QUILPIE,-26.613057,144.267204
4481,FARRARS CREEK,-25.393607,141.55373
4481,TANBAR,-26.323615,141.168992
4481,WINDORAH,-25.421269,142.655413
4482,BIRDSVILLE,-25.898355,139.351645
4486,DIRRANBANDI,-28.585815,148.227609
4486,HEBEL,-28.971768,147.795123
4487,BEGONIA,-27.505231,148.31586
4487,ST GEORGE,-28.033796,148.580377
4488,BOLLON,-28.031524,147.47786
4488,NEBINE,-27.997404,146.815458
4489,WYANDRA,-27.24739,145.981713
4490,BARRINGUN,-28.843124,145.816249
4490,COONGOOLA,-27.653647,145.903593
4490,CUNNAMULLA,-28.068914,145.682771
4490,CUTTABURRA,-28.647268,145.390143
4490,HUMEBURN,-27.399885,145.203562
4490,JOBS GATE,-28.934505,146.738268
4490,LINDEN,-27.899824,146.384889
4490,NOORAMA,-28.707983,146.214473
4490,TUEN,-28.539056,145.744842
4490,WIDGEEGOARA,-28.483006,146.309377
4490,YOWAH,-27.968275,144.636217
4491,EULO,-28.169275,145.042128
4492,BULLAWARRA,-27.783565,143.373975
4492,BULLOO DOWNS,-28.51999,142.942004
4492,DYNEVOR,-28.094034,144.354576
4492,NOCKATUNGA,-27.710216,142.691683
4492,NORLEY,-27.771476,143.87153
4492,THARGOMINDAH,-27.995727,143.819869
4493,HUNGERFORD,-28.996339,144.406584
4494,BUNGUNYA,-28.420865,149.658021
4494,NORTH BUNGUNYA,-28.189332,149.540195
4494,TARAWERA,-28.201819,149.670207
4496,NORTH TALWOOD,-28.443959,149.467729
4496,SOUTH TALWOOD,-28.494933,149.485122
4496,TALWOOD,-28.48528,149.46429
4497,DAYMAR,-28.604238,148.986787
4497,THALLON,-28.634156,148.868644
4497,WEENGALLON,-28.357805,149.054571
4498,KIOMA,-28.214948,149.794723
4498,TOOBEAH,-28.416315,149.873146
4500,BRAY PARK,-27.292807,152.962376
4500,BRENDALE,-27.31833,152.988227
4500,CASHMERE,-27.310723,152.907684
4500,CLEAR MOUNTAIN,-27.301513,152.87636
4500,JOYNER,-27.287288,152.952112
4500,STRATHPINE,-27.304267,152.989087
4500,STRATHPINE CENTRE,-27.306901,152.993382
4500,WARNER,-27.291405,152.953713
4501,LAWNTON,-27.281605,152.980942
4502,PETRIE,-27.26876,152.975593
4503,DAKABIN,-27.226474,152.980732
4503,GRIFFIN,-27.272654,153.025911
4503,KALLANGUR,-27.25075,152.992606
4503,KURWONGBAH,-27.225828,152.947552
4503,MURRUMBA DOWNS,-27.258672,153.006916
4503,WHITESIDE,-27.255364,152.929729
4504,NARANGBA,-27.186964,152.928542
4505,BURPENGARY,-27.17079,152.954767
4506,MOORINA,-27.147649,152.860468
4506,MORAYFIELD,-27.114126,152.951854
4507,BANKSIA BEACH,-27.045188,153.140879
4507,BELLARA,-27.063121,153.152865
4507,BONGAREE,-27.087454,153.161686
4507,BRIBIE ISLAND,-26.943506,153.121925
4507,BRIBIE ISLAND NORTH,-26.909356,153.124445
4507,WELSBY,-27.027578,153.126296
4507,WHITE PATCH,-27.028695,153.124349
4507,WOORIM,-27.070229,153.202457
4508,DECEPTION BAY,-27.196702,153.029501
4509,MANGO HILL,-27.232691,153.017319
4509,NORTH LAKES,-27.220288,153.022987
4510,BEACHMERE,-27.129058,153.052258
4510,BELLMERE,-27.089199,152.926597
4510,CABOOLTURE,-27.085007,152.951707
4510,CABOOLTURE SOUTH,-27.097374,152.94898
4510,DONNYBROOK,-27.001244,153.070349
4510,MELDALE,-27.033612,153.072427
4510,MOODLU,-27.064119,152.911299
4510,ROCKSBERG,-27.107959,152.837003
4510,TOORBUL,-27.033489,153.098146
4510,UPPER CABOOLTURE,-27.112653,152.900717
4511,GODWIN BEACH,-27.084803,153.113383
4511,NINGI,-27.063476,153.080637
4511,SANDSTONE POINT,-27.079573,153.136577
4512,BRACALBA,-27.011117,152.841028
4512,WAMURAN,-27.038849,152.858994
4512,WAMURAN BASIN,-27.046993,152.826673
4514,BELLTHORPE,-26.848046,152.715349
4514,CEDARTON,-26.8617,152.815532
4514,COMMISSIONERS FLAT,-26.860954,152.826874
4514,D'AGUILAR,-26.987127,152.797781
4514,DELANEYS CREEK,-27.018323,152.779059
4514,MOUNT ARCHER,-27.006202,152.659615
4514,MOUNT DELANEY,-27.009926,152.711981
4514,NEURUM,-26.964873,152.698716
4514,STANMORE,-26.878712,152.787712
4514,STONY CREEK,-26.926835,152.712554
4514,VILLENEUVE,-26.96489,152.633236
4514,WOODFORD,-26.954839,152.777875
4515,GLENFERN,-26.959741,152.609621
4515,HAZELDEAN,-27.027835,152.54493
4515,JIMNA,-26.660424,152.464714
4515,KILCOY,-26.94049,152.56432
4515,KINGAHAM,-26.553203,152.414575
4515,MONSILDALE,-26.698214,152.398287
4515,MOUNT KILCOY,-26.883087,152.588364
4515,ROYSTON,-26.934054,152.669152
4515,SANDY CREEK,-26.875862,152.642827
4515,SHEEP STATION CREEK,-26.84321,152.497677
4515,WINYA,-26.928612,152.587053
4515,WOOLMAR,-26.947059,152.508454
4516,ELIMBAH,-27.015065,152.944523
4517,BEERBURRUM,-26.952598,152.963955
4518,GLASS HOUSE MOUNTAINS,-26.897918,152.959204
4519,BEERWAH,-26.857043,152.957162
4519,COOCHIN CREEK,-26.884288,153.05717
4519,CROHAMHURST,-26.808082,152.860914
4519,PEACHESTER,-26.845729,152.884585
4520,ARMSTRONG CREEK,-27.225617,152.797905
4520,CAMP MOUNTAIN,-27.395,152.873677
4520,CEDAR CREEK,-27.327982,152.802966
4520,CLOSEBURN,-27.326359,152.864868
4520,DRAPER,-27.348378,152.902552
4520,ENOGGERA RESERVOIR,-27.429865,152.864844
4520,HIGHVALE,-27.378419,152.815066
4520,JOLLYS LOOKOUT,-27.402083,152.814776
4520,KOBBLE CREEK,-27.252739,152.778642
4520,MOUNT GLORIOUS,-27.337717,152.76815
4520,MOUNT NEBO,-27.397168,152.783717
4520,MOUNT SAMSON,-27.296314,152.850851
4520,SAMFORD,-27.368845,152.850379
4520,SAMFORD VALLEY,-27.368845,152.850379
4520,SAMFORD VILLAGE,-27.370213,152.887092
4520,SAMSONVALE,-27.270358,152.802721
4520,WIGHTS MOUNTAIN,-27.394964,152.851734
4520,YUGAR,-27.345193,152.87409
4521,CAMPBELLS POCKET,-27.07184,152.808774
4521,DAYBORO,-27.196196,152.82427
4521,KING SCRUB,-27.172506,152.824981
4521,LACEYS CREEK,-27.203109,152.749008
4521,MOUNT MEE,-27.074359,152.769772
4521,MOUNT PLEASANT,-27.132252,152.774106
4521,OCEAN VIEW,-27.143427,152.817476
4521,RUSH CREEK,-27.196622,152.860633
4550,LANDSBOROUGH,-26.808565,152.963941
4550,MOUNT MELLUM,-26.803472,152.937796
4551,AROONA,-26.775377,153.113173
4551,BATTERY HILL,-26.777639,153.13482
4551,BELLS CREEK,-26.807507,153.052484
4551,CALOUNDRA,-26.804636,153.130349
4551,CALOUNDRA WEST,-26.792249,153.111959
4551,CURRIMUNDI,-26.770692,153.122988
4551,DICKY BEACH,-26.782893,153.134356
4551,GOLDEN BEACH,-26.823016,153.119868
4551,KINGS BEACH,-26.803578,153.138421
4551,LITTLE MOUNTAIN,-26.785862,153.095128
4551,MERIDAN PLAINS,-26.774066,153.053848
4551,MOFFAT BEACH,-26.790229,153.140122
4551,PELICAN WATERS,-26.833233,153.106076
4551,SHELLY BEACH,-26.79444,153.142764
4552,BALD KNOB,-26.775957,152.892993
4552,BALMORAL RIDGE,-26.74035,152.896247
4552,BOOROOBIN,-26.827538,152.813187
4552,CAMBROON,-26.64003,152.685614
4552,CONONDALE,-26.729579,152.71854
4552,CRYSTAL WATERS,-26.782137,152.716127
4552,CURRAMORE,-26.694311,152.803487
4552,ELAMAN CREEK,-26.723511,152.768801
4552,HARPER CREEK,-26.75086,152.739815
4552,MALENY,-26.75842,152.852971
4552,NORTH MALENY,-26.73108,152.871116
4552,REESVILLE,-26.76108,152.788783
4552,WITTA,-26.717934,152.817462
4552,WOOTHA,-26.781812,152.822754
4553,DIAMOND VALLEY,-26.756517,152.932651
4553,GLENVIEW,-26.766784,153.014886
4553,MOOLOOLAH,-26.765037,152.962122
4553,MOOLOOLAH VALLEY,-26.765037,152.962122
4553,PALMVIEW,-26.757844,153.059926
4554,EUDLO,-26.725961,152.957869
4554,ILKLEY,-26.717333,153.002241
4555,CHEVALLUM,-26.695853,152.987885
4555,HUNCHY,-26.681989,152.903623
4555,LANDERS SHOOT,-26.708419,152.931989
4555,PALMWOODS,-26.68639,152.95873
4556,BUDERIM,-26.685821,153.050524
4556,FOREST GLEN,-26.680346,153.01399
4556,KUNDA PARK,-26.66233,153.035168
4556,MONS,-26.690248,153.024116
4556,SIPPY DOWNS,-26.71506,153.059414
4556,TANAWHA,-26.711518,153.046005
4557,MOOLOOLABA,-26.677686,153.117168
4557,MOUNTAIN CREEK,-26.696362,153.092434
4558,COTTON TREE,-26.655187,153.098747
4558,KULUIN,-26.656994,153.054372
4558,MAROOCHYDORE,-26.652713,153.08974
4558,SUNSHINE PLAZA,-26.65511,153.086865
4559,DIDDILLIBAH,-26.646035,153.035002
4559,KIELS MOUNTAIN,-26.65073,153.001764
4559,WEST WOOMBYE,-26.659647,152.923786
4559,WOOMBYE,-26.660957,152.96357
4560,BLI BLI,-26.6223,153.041663
4560,BURNSIDE,-26.633757,152.950785
4560,COES CREEK,-26.646398,152.94386
4560,COOLOOLABIN,-26.537605,152.901872
4560,DULONG,-26.64265,152.890301
4560,FLAXTON,-26.660923,152.883183
4560,HIGHWORTH,-26.620232,152.930627
4560,IMAGE FLAT,-26.600915,152.932533
4560,KIAMBA,-26.579534,152.920726
4560,KULANGOOR,-26.590834,152.968901
4560,KUREELPA,-26.616715,152.901028
4560,MAPLETON,-26.623295,152.866239
4560,MONTVILLE,-26.692535,152.895286
4560,NAMBOUR,-26.625807,152.959917
4560,NAMBOUR WEST,-26.62222,152.941864
4560,PARKLANDS,-26.602475,152.967371
4560,PERWILLOWEN,-26.638053,152.923032
4560,ROSEMOUNT,-26.632857,153.000091
4560,TOWEN MOUNTAIN,-26.652434,152.917205
4561,BRIDGES,-26.525907,152.928936
4561,MAROOCHY RIVER,-26.579019,153.010301
4561,NINDERRY,-26.542633,152.97283
4561,NORTH ARM,-26.50859,152.95881
4561,VALDORA,-26.550846,153.00743
4561,YANDINA,-26.561202,152.956271
4561,YANDINA CREEK,-26.525975,153.022999
4562,BELLI PARK,-26.475165,152.796338
4562,DOONAN,-26.464484,152.993706
4562,EERWAH VALE,-26.479256,152.929887
4562,EUMUNDI,-26.477184,152.952495
4562,VERRIERDALE,-26.477296,153.008768
4562,WEYBA DOWNS,-26.470204,153.065889
4563,BLACK MOUNTAIN,-26.418798,152.854218
4563,CARTERS RIDGE,-26.449302,152.766298
4563,COOROY,-26.417401,152.910425
4563,COOROY MOUNTAIN,-26.425173,152.953824
4563,LAKE MACDONALD,-26.388501,152.956174
4563,RIDGEWOOD,-26.469133,152.821385
4563,TINBEERWAH,-26.395876,152.982816
4564,MARCOOLA,-26.583856,153.096211
4564,MUDJIMBA,-26.622195,153.090942
4564,PACIFIC PARADISE,-26.619769,153.07736
4564,TWIN WATERS,-26.631033,153.076423
4565,BOREEN POINT,-26.28624,152.993922
4565,COOROIBAH,-26.357514,153.006708
4565,COOTHARABA,-26.297707,152.937252
4565,NOOSA NORTH SHORE,-26.455052,153.074287
4565,RINGTAIL CREEK,-26.346323,152.921373
4565,TEWANTIN,-26.387939,153.028425
4566,NOOSAVILLE,-26.402039,153.064626
4567,CASTAWAYS BEACH,-26.430258,153.105728
4567,NOOSA HEADS,-26.396175,153.089397
4567,SUNRISE BEACH,-26.418479,153.108681
4567,SUNSHINE BEACH,-26.406582,153.104516
4568,PINBARREN,-26.328915,152.858705
4568,POMONA,-26.365826,152.853384
4569,COORAN,-26.334574,152.822844
4570,AMAMOOR,-26.34524,152.674989
4570,AMAMOOR CREEK,-26.359522,152.563309
4570,ANDERLEIGH,-25.998421,152.673583
4570,ARALUEN,-26.159492,152.667669
4570,BANKS POCKET,-26.152885,152.671764
4570,BEENAAM VALLEY,-26.191802,152.818848
4570,BELLA CREEK,-26.478683,152.565988
4570,BELLS BRIDGE,-26.124603,152.574169
4570,BOLLIER,-26.436763,152.733284
4570,BROOLOO,-26.486853,152.705027
4570,CALGOA,-25.874015,152.263048
4570,CALICO CREEK,-26.299486,152.647368
4570,CANINA,-26.143974,152.740487
4570,CEDAR POCKET,-26.198579,152.752262
4570,CHATSWORTH,-26.147944,152.622833
4570,COLES CREEK,-26.359846,152.744387
4570,COONDOO,-26.186272,152.907528
4570,CORELLA,-26.101521,152.639335
4570,CURRA,-26.084421,152.58158
4570,DAGUN,-26.320531,152.680609
4570,DOWNSFIELD,-26.038001,152.732593
4570,EAST DEEP CREEK,-26.196191,152.717857
4570,FISHERMANS POCKET,-26.160454,152.575153
4570,GILLDORA,-26.305184,152.679337
4570,GLANMIRE,-26.228095,152.69553
4570,GLASTONBURY,-26.213581,152.518076
4570,GLEN ECHO,-25.932044,152.44154
4570,GLENWOOD,-25.955162,152.601031
4570,GOOMBOORIAN,-26.071765,152.790998
4570,GREENS CREEK,-26.175361,152.769886
4570,GUNALDA,-25.992842,152.563115
4570,GYMPIE,-26.189352,152.660272
4570,IMBIL,-26.460114,152.676722
4570,JONES HILL,-26.228044,152.670608
4570,KANDANGA,-26.38728,152.677261
4570,KANDANGA CREEK,-26.387811,152.647447
4570,KANIGAN,-25.930942,152.59834
4570,KIA ORA,-26.013351,152.765681
4570,KYBONG,-26.317171,152.717169
4570,LAGOON POCKET,-26.279781,152.664619
4570,LAKE BORUMBA,-26.514388,152.498067
4570,LANGSHAW,-26.299912,152.582257
4570,LONG FLAT,-26.262581,152.662679
4570,LOWER WONGA,-26.091943,152.49222
4570,MARODIAN,-25.848465,152.303881
4570,MARYS CREEK,-26.244652,152.56563
4570,MCINTOSH CREEK,-26.26441,152.642273
4570,MELAWONDI,-26.411091,152.662297
4570,MIVA,-25.957244,152.495339
4570,MONKLAND,-26.210092,152.682646
4570,MOOLOO,-26.301921,152.611457
4570,MOTHAR MOUNTAIN,-26.249372,152.74992
4570,MUNNA CREEK,-25.899533,152.475815
4570,NAHRUNDA,-26.202624,152.624645
4570,NEERDIE,-26.002851,152.753946
4570,NEUSA VALE,-26.19637,152.840944
4570,NORTH DEEP CREEK,-26.136467,152.681097
4570,PATERSON,-25.893843,152.528664
4570,PIE CREEK,-26.240651,152.620218
4570,ROSS CREEK,-26.100481,152.747286
4570,SCOTCHY POCKET,-25.987282,152.544716
4570,SCRUBBY CREEK,-26.219652,152.57325
4570,SEXTON,-26.003264,152.43865
4570,SOUTHSIDE,-26.200243,152.644798
4570,ST MARY,-25.754983,152.486064
4570,TAMAREE,-26.131111,152.663891
4570,TANDUR,-26.283237,152.760703
4570,THE DAWN,-26.242532,152.677027
4570,THE PALMS,-26.204782,152.591041
4570,THEEBINE,-25.951383,152.541418
4570,TOOLARA FOREST,-25.983187,152.848407
4570,TRAVESTON,-26.319474,152.781511
4570,TUCHEKOI,-26.38858,152.749649
4570,TWO MILE,-26.173073,152.643734
4570,UPPER GLASTONBURY,-26.338562,152.552689
4570,UPPER KANDANGA,-26.415001,152.604008
4570,VETERAN,-26.136785,152.708272
4570,VICTORY HEIGHTS,-26.181106,152.688495
4570,WALLU,-25.951251,152.917622
4570,WIDGEE,-26.204093,152.438829
4570,WIDGEE CROSSING NORTH,-26.188022,152.620923
4570,WIDGEE CROSSING SOUTH,-26.205026,152.607095
4570,WILSONS POCKET,-26.127145,152.807576
4570,WOLVI,-26.174185,152.824308
4570,WOOLOOGA,-26.054374,152.392632
4570,WOONDUM,-26.257911,152.734158
4571,COMO,-26.219743,152.931885
4571,KIN KIN,-26.263911,152.875951
4572,ALEXANDRA HEADLAND,-26.670635,153.108029
4573,COOLUM BEACH,-26.527219,153.090485
4573,MARCUS BEACH,-26.452849,153.101048
4573,MOUNT COOLUM,-26.566597,153.092456
4573,PEREGIAN BEACH,-26.480613,153.095633
4573,PEREGIAN BEACH SOUTH,-26.491911,153.09306
4573,PEREGIAN SPRINGS,-26.492298,153.072389
4573,POINT ARKWRIGHT,-26.545795,153.099177
4573,YAROOMBA,-26.552011,153.098093
4574,COOLABINE,-26.600831,152.762607
4574,GHEERULLA,-26.567247,152.764848
4574,KENILWORTH,-26.591434,152.728144
4574,KIDAMAN CREEK,-26.630506,152.767946
4574,MOY POCKET,-26.508502,152.736473
4574,OBI OBI,-26.647147,152.817187
4575,BIRTINYA,-26.745513,153.117015
4575,BOKARINA,-26.73495,153.132829
4575,BUDDINA,-26.702848,153.128225
4575,MINYAMA,-26.69683,153.125213
4575,PARREARRA,-26.708915,153.129216
4575,WARANA,-26.719989,153.133247
4575,WURTULLA,-26.759388,153.12511
4580,COOLOOLA,-26.005381,153.057271
4580,COOLOOLA COVE,-25.957633,152.979814
4580,TIN CAN BAY,-25.910843,153.006922
4581,EURONG,-25.51083,153.123577
4581,FRASER ISLAND,-25.247222,153.151423
4581,INSKIP,-25.827732,153.067201
4581,ORCHID BEACH,-24.956129,153.309916
4581,RAINBOW BEACH,-25.902126,153.092178
4600,BLACK SNAKE,-26.224964,152.268781
4600,CINNABAR,-26.121675,152.186896
4600,KILKIVAN,-26.085073,152.237127
4600,MUDLO,-26.017454,152.23326
4600,OAKVIEW,-26.079534,152.328229
4601,BARAMBAH,-26.325215,152.166608
4601,BOONARA,-26.091506,152.056888
4601,BOOUBYJAN,-25.937606,151.970203
4601,GOOMERI,-26.18254,152.068671
4601,GOOMERIBONG,-26.135246,152.010305
4601,KINBOMBI,-26.196945,152.123874
4601,MANUMBAR,-26.399383,152.272103
4601,MANYUNG,-26.206945,152.027655
4601,TANSEY,-26.041126,152.048683
4601,WRATTENS FOREST,-26.292283,152.334541
4605,BARLIL,-26.204516,151.885957
4605,BYEE,-26.189047,151.850578
4605,CHERBOURG,-26.287502,151.932794
4605,CLOYNA,-26.110098,151.827412
4605,COBBS HILL,-26.090578,151.88907
4605,CROWNTHORPE,-26.114706,151.934926
4605,GLENROCK,-26.102398,151.800032
4605,KITOBA,-26.065392,151.862987
4605,MERLWOOD,-26.149528,151.877811
4605,MOFFATDALE,-26.306836,152.01212
4605,MOONDOONER,-26.233776,151.9891
4605,MURGON,-26.242721,151.942502
4605,OAKDALE,-26.191276,151.894372
4605,REDGATE,-26.272996,152.03151
4605,SILVERLEAF,-26.173637,151.821988
4605,SUNNY NOOK,-26.114717,151.887256
4605,TABLELANDS,-26.181716,151.952386
4605,WARNUNG,-26.145567,151.846307
4605,WINDERA,-26.052197,151.830477
4605,WOOROONDEN,-26.111758,151.775142
4606,CHELMSFORD,-26.253777,151.812709
4606,FAIRDALE,-26.265877,151.76348
4606,FICKS CROSSING,-26.251821,151.88676
4606,GREENVIEW,-26.312512,151.803801
4606,LEAFDALE,-26.233077,151.768089
4606,MOUNT MCEUEN,-26.243548,151.72249
4606,MP CREEK,-26.301067,151.725361
4606,WHEATLANDS,-26.227082,151.845162
4606,WONDAI,-26.317254,151.87543
4608,CHARLESTOWN,-26.369266,151.938598
4608,CUSHNIE,-26.363763,151.754081
4608,TINGOORA,-26.363267,151.820916
4608,WILKESDALE,-26.372098,151.652797
4608,WOOROOLIN,-26.413299,151.815884
4610,ALICE CREEK,-26.760017,151.631701
4610,BALLOGIE,-26.356479,151.534659
4610,BENAIR,-26.646962,151.706664
4610,BOOIE,-26.498426,151.935421
4610,BOONENNE,-26.627626,151.788893
4610,BOYNESIDE,-26.715448,151.508128
4610,CHAHPINGAH,-26.470859,151.381578
4610,COOLABUNIA,-26.601546,151.905245
4610,CORNDALE,-26.437356,151.88043
4610,CRAWFORD,-26.497747,151.825325
4610,DANGORE,-26.450938,151.597894
4610,DURONG,-26.403101,151.304883
4610,DURONG SOUTH,-26.39477,151.243149
4610,ELLESMERE,-26.741796,151.744934
4610,GOODGER,-26.671766,151.817363
4610,GORDONBROOK,-26.426288,151.648433
4610,HALY CREEK,-26.677367,151.726954
4610,HODGLEIGH,-26.628646,151.933634
4610,INVERLAW,-26.594807,151.766347
4610,IRONPOT,-26.603219,151.427688
4610,KINGAROY,-26.5406,151.836117
4610,KUMBIA,-26.689216,151.656224
4610,MANNUEM,-26.633618,151.60475
4610,MEMERAMBI,-26.450796,151.829831
4610,TAABINGA,-26.587266,151.834976
4610,WATTLE GROVE,-26.589477,151.673124
4611,MARSHLANDS,-26.156007,151.750509
4611,MONDURE,-26.182688,151.775563
4612,HIVESVILLE,-26.176778,151.69149
4612,KAWL KAWL,-26.164549,151.724914
4612,KEYSLAND,-26.212658,151.72599
4612,STONELANDS,-26.108698,151.713219
4612,WIGTON,-25.927438,151.612129
4613,ABBEYWOOD,-26.106878,151.6288
4613,BOONDOOMA,-26.29473,151.261259
4613,BRIGOODA,-26.245479,151.433025
4613,COVERTY,-26.24631,151.482658
4613,KINLEYMORE,-26.180453,151.648769
4613,MELROSE,-26.279558,151.619692
4613,OKEDEN,-26.11067,151.532906
4613,PROSTON,-26.163253,151.602063
4613,SPEEDWELL,-26.066559,151.547421
4613,STALWORTH,-26.10675,151.594435
4614,NEUMGNA,-26.819705,151.895063
4614,UPPER YARRAMAN,-26.890285,151.887997
4614,YARRAMAN,-26.838993,151.979532
4615,BARKER CREEK FLAT,-26.648199,151.946486
4615,BROOKLANDS,-26.739146,151.806678
4615,BULLCAMP,-26.629502,152.097096
4615,EAST NANANGO,-26.694254,152.041286
4615,ELGIN VALE,-26.441584,152.189256
4615,GLAN DEVON,-26.594115,152.012483
4615,JOHNSTOWN,-26.415985,152.116676
4615,KUNIOON,-26.655006,151.881262
4615,MAIDENWELL,-26.859386,151.794735
4615,NANANGO,-26.672995,151.999749
4615,PIMPIMBUDGEE,-26.891676,151.792419
4615,RUNNYMEDE,-26.530805,152.063428
4615,SANDY RIDGES,-26.577115,152.02293
4615,SOUTH EAST NANANGO,-26.695004,152.02644
4615,SOUTH NANANGO,-26.777575,151.964745
4615,TARONG,-26.763226,151.849027
4615,WATTLE CAMP,-26.438154,151.961037
4615,WENGENVILLE,-26.828857,151.676461
4615,WYALLA,-26.464888,152.077313
4620,ARAMARA,-25.611275,152.325924
4620,BROOWEENA,-25.603215,152.262565
4620,DOONGUL,-25.479688,152.338246
4620,GIGOOMGAN,-25.724026,152.225002
4620,GLENBAR,-25.767329,152.35636
4620,GUNGALOON,-25.519274,152.444552
4620,MALARGA,-25.799666,152.123529
4620,NORTH ARAMARA,-25.554615,152.318724
4620,TEEBAR,-25.637935,152.241316
4620,WOOCOO,-25.669215,152.310985
4621,BIGGENDEN,-25.510983,152.045629
4621,BOOMPA,-25.589377,152.183411
4621,COALSTOUN LAKES,-25.612337,151.890691
4621,CORINGA,-25.363847,151.987878
4621,DALLARNIL,-25.385169,152.045475
4621,DEGILBO,-25.48157,152.00204
4621,DIDCOT,-25.4745,151.864122
4621,GOLDEN FLEECE,-25.340399,152.11023
4621,LAKESIDE,-25.576631,152.128158
4621,WATERANGA,-25.377561,151.812425
4621,WOOWOONGA,-25.436667,152.069627
4625,ARANBANGA,-25.806808,151.670067
4625,BAN BAN,-25.66657,151.792448
4625,BAN BAN SPRINGS,-25.679987,151.816093
4625,BARLYNE,-25.704258,151.635977
4625,BINJOUR,-25.513199,151.455278
4625,BLAIRMORE,-25.776347,151.855604
4625,BON ACCORD,-25.579631,151.664929
4625,BRANCH CREEK,-25.407428,151.407217
4625,BYRNESTOWN,-25.52354,151.762265
4625,CAMPBELL CREEK,-25.711338,151.690896
4625,DEEP CREEK,-25.629139,151.504038
4625,DIRNBIR,-25.603822,151.561571
4625,DUNDARRAH,-25.647587,151.913961
4625,GAYNDAH,-25.625429,151.610206
4625,GINOONDAN,-25.57899,151.760978
4625,GOOROOLBA,-25.505638,151.808792
4625,HARRIET,-25.750421,151.572782
4625,HUMPHERY,-25.598499,151.480509
4625,IDERAWAY,-25.580143,151.614362
4625,MINGO,-25.395491,151.777606
4625,MOUNT DEBATEABLE,-25.630482,151.551312
4625,MOUNT LAWLESS,-25.541608,151.653075
4625,PENWHAUPELL,-25.739628,151.718586
4625,PILE GULLY,-25.734306,151.524476
4625,REIDS CREEK,-25.527729,151.525277
4625,STOCKHAVEN,-25.745047,151.936912
4625,THE LIMITS,-25.676228,151.657316
4625,TOONDAHRA,-25.934819,151.373463
4625,WAHOON,-25.903678,151.714527
4625,WETHERON,-25.545244,151.713778
4625,WILSON VALLEY,-25.553737,151.856172
4625,WOODMILLAR,-25.668938,151.571977
4625,YENDA,-25.476208,151.642445
4626,BEERON,-25.813563,151.205469
4626,BOYNEWOOD,-25.63297,151.279322
4626,BROVINIA,-25.813563,151.205469
4626,CATTLE CREEK,-25.463838,151.309869
4626,COONAMBULA,-25.54732,151.108393
4626,DERRI DERRA,-25.69535,151.228493
4626,DYKEHEAD,-25.65949,151.048476
4626,GLENRAE,-25.658239,151.330221
4626,GURGEENA,-25.460568,151.398738
4626,HAWKWOOD,-25.779872,150.81242
4626,MONOGORILBY,-26.056341,151.00648
4626,MUNDOWRAN,-25.5206,151.343759
4626,MUNDUBBERA,-25.588965,151.296016
4626,O'BIL BIL,-25.520103,151.219245
4626,OLD COORANGA,-25.76187,151.337562
4626,PHILPOTT,-25.589209,151.36721
4626,RIVERLEIGH,-25.584629,151.211922
4627,ABERCORN,-25.136637,151.129347
4627,CERATODUS,-25.288528,151.139849
4627,CHELTENHAM,-25.63328,150.774239
4627,CYNTHIA,-25.211296,151.129985
4627,EIDSVOLD,-25.371967,151.122621
4627,EIDSVOLD EAST,-25.385128,151.249699
4627,EIDSVOLD WEST,-25.362586,150.718954
4627,GROSVENOR,-25.428969,151.177161
4627,MALMOE,-25.47654,151.209741
4627,WURUMA DAM,-25.188107,151.002309
4630,BANCROFT,-24.788266,151.231904
4630,BUKALI,-24.80637,151.157062
4630,CANIA,-24.617427,150.943098
4630,CANNINDAH,-24.864758,151.237684
4630,COOMINGLAH,-24.76568,150.845786
4630,COOMINGLAH FOREST,-24.669779,150.872531
4630,DALGA,-24.657726,151.435875
4630,GLENLEIGH,-25.057197,151.045267
4630,HARRAMI,-24.762616,150.641083
4630,KALPOWAR,-24.692829,151.306622
4630,KAPALDO,-25.042737,151.135396
4630,LANGLEY,-25.114256,151.248542
4630,MONAL,-24.613868,151.105786
4630,MONTO,-24.863085,151.121559
4630,MOONFORD,-24.761327,151.035987
4630,MULGILDIE,-24.964665,151.131573
4630,MUNGUNGO,-24.766974,151.163581
4630,RAWBELLE,-25.027406,150.8302
4630,SELENE,-24.993127,151.141216
4630,SPLINTER CREEK,-24.929556,151.226111
4630,TELLEBANG,-25.009217,151.269144
4630,THREE MOON,-24.918977,151.133102
4630,VENTNOR,-24.906604,151.297576
4630,YARROL,-25.130077,151.352134
4650,ALDERSHOT,-25.466599,152.656881
4650,ANTIGUA,-25.638213,152.602531
4650,BAUPLE,-25.813247,152.61755
4650,BAUPLE FOREST,-25.878045,152.655116
4650,BEAVER ROCK,-25.509848,152.803936
4650,BIDWILL,-25.584371,152.719912
4650,BOONOOROO,-25.667591,152.895145
4650,BOONOOROO PLAINS,-25.561375,152.745123
4650,DUCKINWILLA,-25.412576,152.437465
4650,DUNDATHU,-25.462955,152.73456
4650,DUNMORA,-25.520497,152.556256
4650,FERNEY,-25.609451,152.620335
4650,GLENORCHY,-25.612564,152.643507
4650,GOOTCHIE,-25.851273,152.556553
4650,GRAHAMS CREEK,-25.569553,152.59611
4650,GRANVILLE,-25.537632,152.71942
4650,GUNDIAH,-25.831803,152.541333
4650,ISLAND PLANTATION,-25.488641,152.729037
4650,MAAROOM,-25.612137,152.872379
4650,MAGNOLIA,-25.653784,152.674428
4650,MARYBOROUGH,-25.53768,152.704098
4650,MARYBOROUGH WEST,-25.515881,152.661678
4650,MOUNT STEADMAN,-25.457778,151.796252
4650,MOUNT URAH,-25.814673,152.469274
4650,MUNGAR,-25.604634,152.590054
4650,NETHERBY,-25.771473,152.546823
4650,OAKHURST,-25.513708,152.63348
4650,OWANYILLA,-25.661934,152.620524
4650,PALLAS STREET MARYBOROUGH,-25.527411,152.697119
4650,PILERWA,-25.602563,152.563771
4650,PIONEERS REST,-25.649934,152.569055
4650,POONA,-25.721244,152.906086
4650,PRAWLE,-25.485848,152.758607
4650,ST HELENS,-25.488634,152.710475
4650,TALEGALLA WEIR,-25.794645,152.690672
4650,TANDORA,-25.453497,152.841526
4650,TEDDINGTON,-25.648618,152.660384
4650,THE DIMONDS,-25.530199,152.850722
4650,THINOOMBA,-25.596594,152.458423
4650,TIARO,-25.732647,152.582553
4650,TINANA,-25.545677,152.682761
4650,TINANA SOUTH,-25.582214,152.651343
4650,TINNANBAR,-25.760195,152.958874
4650,TUAN,-25.68142,152.874715
4650,TUAN FOREST,-25.712932,152.846101
4650,WALKERS POINT,-25.470867,152.735728
4650,YENGARIE,-25.552351,152.60148
4650,YERRA,-25.615353,152.529992
4655,BOORAL,-25.352719,152.890792
4655,BUNYA CREEK,-25.374911,152.84157
4655,CRAIGNISH,-25.282608,152.727606
4655,DUNDOWRAN,-25.282019,152.747852
4655,DUNDOWRAN BEACH,-25.269736,152.748277
4655,ELI WATERS,-25.282292,152.813295
4655,GREAT SANDY STRAIT,-25.455144,152.92621
4655,HAPPY VALLEY,-25.33708,153.199234
4655,HERVEY BAY,-25.290392,152.850367
4655,KAWUNGAN,-25.304229,152.835545
4655,NIKENBAH,-25.316443,152.801947
4655,PIALBA,-25.281981,152.841488
4655,POINT VERNON,-25.248169,152.8269
4655,RIVER HEADS,-25.414452,152.911783
4655,SCARNESS,-25.290468,152.856175
4655,SUNSHINE ACRES,-25.356852,152.788735
4655,SUSAN RIVER,-25.419304,152.75972
4655,TAKURA,-25.330184,152.71906
4655,TOOGOOM,-25.255093,152.690689
4655,TORQUAY,-25.284245,152.870071
4655,URANGAN,-25.29337,152.893856
4655,URRAWEEN,-25.300495,152.821703
4655,WALLIEBUM,-25.431128,152.742622
4655,WALLIGAN,-25.341856,152.772486
4655,WONDUNNA,-25.314486,152.86299
4659,BEELBI CREEK,-25.29264,152.626943
4659,BURGOWAN,-25.350685,152.641732
4659,BURRUM,-25.184233,152.614149
4659,BURRUM HEADS,-25.184233,152.614149
4659,BURRUM RIVER,-25.273406,152.580724
4659,BURRUM TOWN,-25.331732,152.580229
4659,HOWARD,-25.317481,152.562412
4659,PACIFIC HAVEN,-25.249489,152.544261
4660,ABINGTON,-25.203235,152.328931
4660,APPLE TREE CREEK,-25.21521,152.233998
4660,BUXTON,-25.196679,152.53704
4660,CHERWELL,-25.309574,152.461909
4660,CHILDERS,-25.236463,152.27804
4660,CORDALBA,-25.16261,152.211508
4660,DOOLBI,-25.231778,152.301006
4660,EUREKA,-25.283616,152.146054
4660,FARNSFIELD,-25.114558,152.279525
4660,GOODWOOD,-25.102132,152.373237
4660,GREGORY RIVER,-25.085883,152.239353
4660,HORTON,-25.225797,152.317806
4660,ISIS CENTRAL,-25.194606,152.187643
4660,ISIS RIVER,-25.236065,152.38616
4660,KULLOGUM,-25.328046,152.266503
4660,NORTH GREGORY,-25.073526,152.284751
4660,NORTH ISIS,-25.168346,152.241392
4660,PROMISEDLAND,-25.097625,152.166165
4660,REDRIDGE,-25.175142,152.367964
4660,SOUTH ISIS,-25.268556,152.305952
4660,WOODGATE,-25.101838,152.560099
4662,TORBANLEA,-25.347212,152.59878
4670,ABBOTSFORD,-24.843687,152.024909
4670,ALLOWAY,-24.952376,152.36214
4670,ASHFIELD,-24.867078,152.385732
4670,AVENELL HEIGHTS,-24.890477,152.373881
4670,AVOCA,-24.881847,152.312547
4670,AVONDALE,-24.74144,152.161231
4670,BARGARA,-24.814936,152.462986
4670,BRANYAN,-24.896386,152.241281
4670,BUCCA,-24.847573,152.081434
4670,BUNDABERG,-24.866109,152.348847
4670,BUNDABERG CENTRAL,-24.912521,152.367248
4670,BUNDABERG EAST,-24.853431,152.380129
4670,BUNDABERG NORTH,-24.856719,152.345006
4670,BUNDABERG SOUTH,-24.87385,152.362622
4670,BUNDABERG WEST,-24.87106,152.335456
4670,BURNETT HEADS,-24.763702,152.405582
4670,CALAVOS,-24.936598,152.444479
4670,COONARR,-24.95801,152.483243
4670,CORAL COVE,-24.885627,152.482509
4670,ELECTRA,-25.003765,152.114098
4670,ELLIOTT,-24.987191,152.380737
4670,ELLIOTT HEADS,-24.900849,152.488669
4670,FAIRYMEAD,-24.779813,152.366767
4670,GIVELDA,-24.987836,152.147093
4670,GOOBURRUM,-24.84883,152.319021
4670,INNES PARK,-24.867985,152.478521
4670,KALKIE,-24.847968,152.384689
4670,KENSINGTON,-24.91642,152.318991
4670,KEPNOCK,-24.877518,152.37441
4670,KINKUNA,-25.049023,152.394428
4670,MEADOWVALE,-24.815489,152.274737
4670,MILLBANK,-24.871978,152.323198
4670,MON REPOS,-24.802029,152.442903
4670,MOORE PARK BEACH,-24.720429,152.263832
4670,MOORLAND,-24.749099,152.184696
4670,MULLETT CREEK,-24.656522,152.060817
4670,NORVILLE,-24.884405,152.347177
4670,PINE CREEK,-25.002505,152.190194
4670,QUNABA,-24.831023,152.427938
4670,RUBYANNA,-24.805242,152.399517
4670,SHARON,-24.873958,152.262334
4670,SOUTH BINGERA,-24.978577,152.188299
4670,SOUTH KOLAN,-24.931886,152.169861
4670,SVENSSON HEIGHTS,-24.886267,152.335656
4670,THABEBAN,-24.902509,152.365568
4670,WALKERVALE,-24.883749,152.355434
4670,WATALGAN,-24.639152,152.014446
4670,WELCOME CREEK,-24.7645,152.276017
4670,WINFIELD,-24.544293,152.068789
4670,WOONGARRA,-24.874903,152.411697
4671,BOOLBOONDA,-25.079428,151.67995
4671,BOOYAL,-25.214787,152.036765
4671,BULLYARD,-24.95524,152.057518
4671,BUNGADOO,-24.986089,152.071915
4671,DALYSFORD,-25.040057,151.885797
4671,DAMASCUS,-24.951617,151.952716
4671,DELAN,-24.980601,152.044083
4671,DOUGHBOY,-25.142079,151.838288
4671,DRINAN,-25.047558,152.019495
4671,DUINGAL,-25.113097,152.038565
4671,GAETA,-24.818239,151.589298
4671,GIN GIN,-24.993385,151.960164
4671,GOOD NIGHT,-25.310208,151.897089
4671,HORSE CAMP,-25.066007,151.892387
4671,KOLONGA,-24.828389,151.707268
4671,LAKE MONDURAN,-24.810149,151.833346
4671,MAROONDAN,-24.971887,152.012425
4671,MCILWRAITH,-24.998427,151.980875
4671,MOLANGUL,-24.750385,151.548274
4671,MONDURAN,-24.887138,151.911926
4671,MOOLBOOLAMAN,-25.004768,151.817928
4671,MORGANVILLE,-25.173088,151.970426
4671,MOUNT PERRY,-25.176565,151.64283
4671,MUNGY,-25.250098,151.438395
4671,NEARUM,-25.052638,151.806838
4671,NEW MOONTA,-25.038779,151.720129
4671,REDHILL FARMS,-25.027236,151.951829
4671,SKYRING RESERVE,-25.037271,151.96782
4671,ST AGNES,-25.136477,151.932838
4671,ST KILDA,-25.048038,151.929106
4671,TAKILBERAN,-24.882309,151.684709
4671,TIRROAN,-25.002347,151.926836
4671,WALLAVILLE,-25.07051,151.996078
4671,WONBAH,-25.062708,151.65013
4671,WONBAH FOREST,-24.988078,151.62595
4673,MIARA,-24.686568,152.165161
4673,WATERLOO,-24.722992,152.008026
4673,YANDARAN,-24.72125,152.113074
4674,BAFFLE CREEK,-24.473289,151.948748
4674,BERAJONDO,-24.616749,151.846085
4674,DEEPWATER,-24.417237,151.964588
4674,EULEILAH,-24.504664,151.857717
4674,MOUNT MARIA,-24.545759,151.820515
4674,OYSTER CREEK,-24.416519,151.848174
4674,ROSEDALE,-24.629975,151.914469
4674,RULES BEACH,-24.502409,152.027805
4674,TAUNTON,-24.424259,151.818734
4676,GINDORAN,-24.62626,151.59192
4676,LOWMEAD,-24.529714,151.754149
4677,AGNES WATER,-24.212505,151.903352
4677,CAPTAIN CREEK,-24.292033,151.779995
4677,EURIMBULA,-24.1047,151.713784
4677,MIRIAM VALE,-24.32865,151.560589
4677,MOUNT TOM,-24.37953,151.678266
4677,ROUND HILL,-24.248015,151.853697
4677,SEVENTEEN SEVENTY,-24.168549,151.881371
4678,BOROREN,-24.243194,151.495847
4678,FORESHORES,-24.033751,151.493277
4678,RODDS BAY,-24.10257,151.64218
4678,TURKEY BEACH,-24.084266,151.649876
4680,BARNEY POINT,-23.856785,151.271287
4680,BEECHER,-23.895629,151.203773
4680,BENARABY,-23.999181,151.31773
4680,BOYNE ISLAND,-23.947793,151.355077
4680,BOYNE VALLEY,-24.38734,151.193564
4680,BOYNEDALE,-24.215069,151.248235
4680,BUILYAN,-24.530189,151.384027
4680,BURUA,-23.942588,151.221904
4680,BYELLEE,-23.872484,151.192943
4680,CALLEMONDAH,-23.849313,151.231154
4680,CALLIOPE,-24.00707,151.200583
4680,CLINTON,-23.875755,151.219622
4680,CURTIS ISLAND,-23.623566,151.147006
4680,DIGLUM,-24.23753,151.109834
4680,GLADSTONE,-23.842101,151.250819
4680,GLADSTONE SOUTH,-23.865175,151.272071
4680,GLEN EDEN,-23.895493,151.280302
4680,HERON ISLAND,-23.442173,151.915593
4680,IVERAGH,-24.102048,151.420571
4680,KIN KORA,-23.871943,151.251137
4680,KIRKWOOD,-23.907141,151.22798
4680,MANY PEAKS,-24.543911,151.36902
4680,MOUNT ALMA,-24.023401,150.873457
4680,NAGOORIN,-24.352927,151.299901
4680,NEW AUCKLAND,-23.879075,151.229351
4680,O'CONNELL,-23.928973,151.269605
4680,RIVER RANCH,-23.971751,151.16325
4680,SOUTH END,-23.756342,151.310501
4680,SOUTH GLADSTONE,-23.865175,151.272071
4680,SOUTH TREES,-23.902807,151.289264
4680,SUN VALLEY,-23.872804,151.256455
4680,TABLELANDS,-24.298369,150.896407
4680,TANNUM SANDS,-23.948545,151.365859
4680,TARAGOOLA,-24.10135,151.222224
4680,TELINA,-23.884476,151.254748
4680,TOOLOOA,-23.885523,151.267569
4680,UBOBO,-24.40635,151.325082
4680,WEST GLADSTONE,-23.860425,151.245446
4680,WEST STOWE,-23.867932,151.137003
4680,WOODERSON,-23.999941,151.053716
4680,WURDONG HEIGHTS,-23.980536,151.308211
4694,ALDOGA,-23.835292,151.071334
4694,TARGINIE,-23.783212,151.109944
4694,YARWUN,-23.844922,151.125563
4695,AMBROSE,-23.785682,150.926796
4695,BRACEWELL,-23.889831,150.892069
4695,DARTS CREEK,-23.734062,150.942926
4695,EAST END,-23.871091,150.971406
4695,MACHINE CREEK,-23.834932,150.941886
4695,MOUNT LARCOM,-23.810739,150.980455
4695,THE NARROWS,-23.665472,150.959926
4697,RAGLAN,-23.717454,150.819346
4699,BAJOOL,-23.651894,150.641144
4699,PORT ALMA,-23.585254,150.856936
4700,ALLENSTOWN,-23.388939,150.502867
4700,DEPOT HILL,-23.396616,150.520408
4700,FAIRY BOWER,-23.409652,150.474834
4700,GREAT KEPPEL ISLAND,-23.175703,150.956347
4700,PORT CURTIS,-23.402838,150.507051
4700,ROCKHAMPTON,-23.378941,150.512323
4700,ROCKHAMPTON CITY,-23.377195,150.509887
4700,ROCKHAMPTON HOSPITAL,-23.380058,150.495027
4700,THE KEPPELS,-23.191308,150.977662
4700,THE RANGE,-23.391858,150.502355
4700,WANDAL,-23.367783,150.491398
4700,WEST ROCKHAMPTON,-23.376442,150.489968
4701,BERSERKER,-23.362809,150.522691
4701,CENTRAL QUEENSLAND UNIVERSITY,-23.319762,150.522583
4701,FRENCHVILLE,-23.347277,150.5374
4701,GREENLAKE,-23.028613,150.544683
4701,IRONPOT,-23.267053,150.596962
4701,KAWANA,-23.333964,150.502293
4701,KOONGAL,-23.374318,150.552563
4701,LAKES CREEK,-23.384028,150.563947
4701,LIMESTONE CREEK,-23.286777,150.567708
4701,MOUNT ARCHER,-23.339664,150.574491
4701,NANKIN,-23.424722,150.680961
4701,NERIMBERA,-23.399587,150.611908
4701,NORMAN GARDENS,-23.318313,150.577681
4701,NORTH ROCKHAMPTON,-23.370678,150.505387
4701,PARK AVENUE,-23.353602,150.515728
4701,ROCKHAMPTON NORTH,-23.370678,150.505387
4701,ROCKHAMPTON SHOPPING FAIR,-23.354698,150.521757
4701,ROCKYVIEW,-23.236357,150.519587
4701,SANDRINGHAM,-23.214013,150.549023
4701,THE COMMON,-23.37731,150.519384
4702,ALBERTA,-24.325475,149.782526
4702,ALSACE,-23.275888,149.350507
4702,ALTON DOWNS,-23.307182,150.388035
4702,ANAKIE,-23.443402,147.727709
4702,ARGOON,-24.222873,150.427462
4702,BALCOMBA,-23.401286,149.647934
4702,BANANA,-24.470156,150.128372
4702,BARALABA,-24.181105,149.81123
4702,BARNARD,-23.994458,149.719105
4702,BINGEGANG,-23.20829,149.152198
4702,BLACKDOWN,-23.816646,149.072103
4702,BLUFF,-23.58242,149.069482
4702,BOOLBURRA,-23.737942,149.783973
4702,BOULDERCOMBE,-23.565446,150.47228
4702,BUSHLEY,-23.528802,150.260157
4702,CANAL CREEK,-22.970113,150.475084
4702,CANOONA,-23.08085,150.277841
4702,CAWARRAL,-23.255353,150.66381
4702,CONSUELO,-24.660219,148.470832
4702,COOMOO,-23.811141,149.585736
4702,COOROOMAN,-23.253043,150.73538
4702,COORUMBENE,-24.499564,148.740052
4702,COOWONGA,-23.279356,150.725815
4702,DALMA,-23.355152,150.243937
4702,DINGO,-23.648599,149.333386
4702,DIXALEA,-23.95026,150.337095
4702,DULULU,-23.847537,150.264127
4702,DUMPY CREEK,-23.973699,150.04886
4702,ETNA CREEK,-23.211453,150.420665
4702,FERNLEES,-23.856975,148.126133
4702,GAINSFORD,-23.791191,149.767153
4702,GARNANT,-23.188403,150.253387
4702,GINDIE,-23.726148,148.144949
4702,GLENROY,-23.181815,149.902931
4702,GOGANGO,-23.704122,149.9957
4702,GOOMALLY,-24.322234,149.279232
4702,GOOVIGEN,-24.146865,150.286187
4702,GOOWARRA,-23.663824,149.414769
4702,GRACEMERE,-23.435799,150.455156
4702,JAMBIN,-24.195687,150.371085
4702,JARDINE,-23.078193,150.397465
4702,JELLINBAH,-23.27091,148.860442
4702,JOSKELEIGH,-23.367043,150.785581
4702,KABRA,-23.466792,150.395165
4702,KALAPA,-23.511622,150.268677
4702,KEPPEL SANDS,-23.326455,150.791076
4702,KOKOTUNGO,-24.136088,150.001064
4702,KUNWARARA,-22.910534,150.13587
4702,LOWESBY,-24.376375,148.695703
4702,MACKENZIE,-23.119491,149.324065
4702,MARMOR,-23.68327,150.715839
4702,MIDGEE,-23.496496,150.587174
4702,MILMAN,-23.117253,150.399095
4702,MIMOSA,-24.258396,149.612899
4702,MOONMERA,-23.578762,150.405775
4702,MORINISH,-23.161324,150.04315
4702,MORINISH SOUTH,-23.363423,150.02356
4702,MOUNT CHALMERS,-23.290393,150.640962
4702,NINE MILE,-23.4122,150.352288
4702,PARKHURST,-23.296221,150.512185
4702,PHEASANT CREEK,-23.809338,150.095683
4702,PINK LILY,-23.358786,150.471233
4702,PLUM TREE,-24.701126,152.250449
4702,RIDGELANDS,-23.246272,150.283357
4702,ROLLESTON,-24.462765,148.623562
4702,ROSSMOYA,-23.037793,150.481574
4702,RUBYVALE,-23.417169,147.698428
4702,SAPPHIRE,-23.460741,147.72012
4702,SHOALWATER,-22.686683,150.440532
4702,SMOKY CREEK,-24.137607,150.378605
4702,SOUTH YAAMBA,-23.196523,150.360336
4702,STANAGE,-22.141586,150.052113
4702,STANWELL,-23.485074,150.325462
4702,STEWARTON,-23.797854,148.917883
4702,THE CAVES,-23.179473,150.457304
4702,THOMPSON POINT,-23.451405,150.797949
4702,TUNGAMULL,-23.312856,150.688036
4702,ULOGIE,-23.964839,150.407364
4702,WALLAROO,-23.707183,149.561316
4702,WESTWOOD,-23.619461,150.159688
4702,WILLOWS,-23.65616,147.477053
4702,WILLOWS GEMFIELDS,-23.933289,147.530365
4702,WOOLEIN,-24.246135,150.161289
4702,WOOROONA,-24.048218,149.40244
4702,WOWAN,-23.906974,150.195444
4702,WYCARBAH,-23.546549,150.218036
4702,YARAKA,-24.883067,144.075568
4703,ADELAIDE PARK,-23.114684,150.696731
4703,BANGALEE,-23.076904,150.76115
4703,BARLOWS HILL,-23.10753,150.742763
4703,BARMARYEE,-23.131,150.703155
4703,BARMOYA,-23.147339,150.558296
4703,BONDOOLA,-23.169384,150.687551
4703,BUNGUNDARRA,-23.062718,150.656105
4703,BYFIELD,-22.848493,150.65154
4703,CAUSEWAY LAKE,-23.198344,150.78922
4703,COBRABALL,-23.15717,150.606696
4703,COOEE BAY,-23.142164,150.755657
4703,FARNBOROUGH,-23.068634,150.731091
4703,HIDDEN VALLEY,-23.149161,150.733658
4703,INVERNESS,-23.119143,150.724016
4703,KINKA BEACH,-23.224108,150.796591
4703,LAKE MARY,-23.114353,150.584953
4703,LAMMERMOOR,-23.164972,150.773377
4703,MARYVALE,-23.009453,150.609132
4703,MEIKLEVILLE HILL,-23.11329,150.745933
4703,MULAMBIN,-23.188794,150.791309
4703,MULARA,-23.209423,150.643072
4703,PACIFIC HEIGHTS,-23.100214,150.740635
4703,ROSSLYN,-23.166912,150.780652
4703,STOCKYARD,-22.812513,150.798937
4703,TANBY,-23.228674,150.74834
4703,TARANGANBA,-23.154902,150.750043
4703,TAROOMBALL,-23.172736,150.742189
4703,WEERRIBA,-22.801783,150.63102
4703,WOODBURY,-23.030323,150.687271
4703,YEPPOON,-23.128568,150.742916
4704,WATTLEBANK,-23.119953,150.462544
4704,YAAMBA,-23.134771,150.367879
4705,CLARKE CREEK,-22.743208,149.313523
4705,LOTUS CREEK,-22.347014,149.101364
4705,MACKENZIE RIVER,-22.95272,148.935101
4705,MARLBOROUGH,-22.81387,149.888462
4705,MOUNT GARDINER,-22.995208,149.575993
4706,OGMORE,-22.592329,149.635224
4707,COLLAROY,-21.868843,149.143033
4707,ST LAWRENCE,-22.3459,149.537312
4709,TIERI,-23.038374,148.344727
4710,EMU PARK,-23.257223,150.82635
4710,ZILZIE,-23.287293,150.800689
4711,GLENDALE,-23.252534,150.476229
4711,GLENLEE,-23.27591,150.508009
4712,DUARINGA,-23.69521,149.673726
4713,WOORABINDA,-24.114138,149.430965
4714,BAREE,-23.624671,150.391364
4714,BOULDER CREEK,-23.695791,150.337835
4714,FLETCHER CREEK,-23.758481,150.371165
4714,HAMILTON CREEK,-23.671451,150.398565
4714,HORSE CREEK,-23.663059,150.382617
4714,JOHNSONS HILL,-23.617817,150.415623
4714,LEYDENS HILL,-23.611182,150.413184
4714,LIMESTONE,-23.637281,150.443544
4714,MOONGAN,-23.606382,150.400845
4714,MOUNT MORGAN,-23.645487,150.387406
4714,NINE MILE CREEK,-23.702201,150.402544
4714,OAKEY CREEK,-23.750527,150.360975
4714,STRUCK OIL,-23.614052,150.448475
4714,THE MINE,-23.629591,150.374705
4714,TROTTER CREEK,-23.685291,150.358856
4714,WALMUL,-23.721451,150.371835
4714,WALTERHALL,-23.630586,150.384082
4714,WURA,-23.810627,150.325976
4715,BILOELA,-24.401296,150.511308
4715,CALLIDE,-24.270966,150.499863
4715,CASTLE CREEK,-24.753965,150.293878
4715,DAKENBA,-24.352756,150.499503
4715,DUMGREE,-24.164965,150.649496
4715,GREYCLIFFE,-24.227157,150.326116
4715,MOUNT MURCHISON,-24.301182,150.5677
4715,ORANGE CREEK,-24.358225,150.321296
4715,PROSPECT,-24.416316,150.436144
4715,TARRAMBA,-24.638465,150.270171
4715,VALENTINE PLAINS,-24.419597,150.580522
4716,LAWGI DAWES,-24.579542,150.668297
4716,THANGOOL,-24.486789,150.575739
4717,BLACKWATER,-23.585701,148.880408
4718,BAUHINIA,-24.568117,149.297694
4718,DROMEDARY,-24.601362,149.20764
4718,KIANGA,-24.69356,150.010015
4718,MOURA,-24.572421,149.967519
4718,MUNGABUNDA,-24.768627,149.205437
4718,OOMBABEER,-24.476452,149.347272
4718,RHYDDING,-24.754586,149.557112
4718,ROUNDSTONE,-24.620827,149.813911
4718,WARNOAH,-24.600865,149.882015
4719,CAMBOON,-25.049303,150.163389
4719,CRACOW,-25.295825,150.30097
4719,GLENMORAL,-24.980606,149.907687
4719,ISLA,-25.130669,150.051513
4719,LONESOME CREEK,-24.905474,150.112858
4719,THEODORE,-24.946259,150.075809
4720,EMERALD,-23.52685,148.161076
4720,YAMALA,-23.578317,148.370126
4721,ARGYLL,-23.277321,147.562498
4721,CLERMONT,-22.825813,147.640103
4721,FRANKFIELD,-22.274163,147.090849
4721,GEMINI MOUNTAINS,-22.476528,147.917892
4721,KILCUMMIN,-22.371603,147.56038
4721,PASHA,-21.729344,147.553072
4721,THERESA CREEK,-23.011862,147.610365
4721,WOLFANG,-22.564761,147.815559
4722,BUCKLAND,-24.506491,147.41651
4722,CAIRDBEIGN,-24.249511,148.051143
4722,CONA CREEK,-24.150241,147.881012
4722,NANDOWRIE,-24.245495,147.611213
4722,ORION,-24.221292,148.358726
4722,SPRINGSURE,-24.116347,148.088438
4722,WEALWANDANGIE,-24.415509,148.049236
4723,BELCONG,-23.010007,148.231917
4723,CAPELLA,-23.086102,148.02308
4723,CARBINE CREEK,-23.26187,147.803254
4723,CHIRNSIDE,-23.141195,148.039838
4723,CRINUM,-23.216155,148.314668
4723,HIBERNIA,-23.159598,147.977491
4723,KHOSH BULDUK,-22.979669,148.040909
4723,LILYVALE,-23.202344,148.478046
4723,LOWESTOFF,-22.881699,148.076217
4723,MOUNT MACARTHUR,-22.910478,148.164156
4723,RETRO,-22.86698,147.897929
4724,ALPHA,-23.649656,146.641074
4724,BEAUFORT,-23.568723,146.820887
4724,DRUMMONDSLOPE,-24.356604,146.558095
4724,HOBARTVILLE,-23.301129,146.507799
4724,PINE HILL,-23.576617,146.996116
4724,PORT WINE,-23.831822,147.14907
4724,SEDGEFORD,-23.921601,146.722819
4724,SURBITON,-23.162804,146.658056
4725,BARCALDINE,-23.551987,145.289074
4725,BARCALDINE DOWNS,-23.728679,145.125219
4725,PATRICK,-23.722654,145.296243
4726,ARAMAC,-22.97216,145.24543
4726,PELICAN CREEK,-22.852477,145.072779
4727,ILFRACOMBE,-23.849803,144.472886
4728,DUNROBIN,-22.68504,146.150547
4728,GARFIELD,-23.284322,145.964914
4728,JERICHO,-23.602719,146.126301
4728,MEXICO,-23.886449,146.276631
4730,CAMOOLA,-23.044622,144.525193
4730,CHORREGON,-22.680308,143.559365
4730,ERNESTINA,-23.589922,143.857335
4730,LONGREACH,-23.440485,144.250329
4730,MANEROO,-23.373625,143.899202
4730,MORELLA,-22.983706,143.863036
4730,TOCAL,-23.917446,143.560057
4730,VERGEMONT,-23.516203,143.006711
4731,ISISFORD,-24.260492,144.440754
4732,MUTTABURRA,-22.593523,144.546108
4732,TABLEDERRY,-22.470473,144.489156
4733,CORFIELD,-21.712701,143.374169
4735,DIAMANTINA LAKES,-23.763837,141.139094
4735,MIDDLETON,-22.353678,141.551751
4735,OPALTON,-23.247479,142.761457
4735,WINTON,-22.391314,143.038117
4736,JUNDAH,-24.83083,143.058389
4737,ARMSTRONG BEACH,-21.454914,149.289562
4737,BLUE MOUNTAIN,-21.509465,148.988632
4737,FRESHWATER POINT,-21.417183,149.326488
4737,SARINA,-21.421165,149.216756
4737,SARINA BEACH,-21.382538,149.268634
4737,SARINA RANGE,-21.529735,149.106757
4737,SUNNYSIDE,-21.367614,149.096751
4738,ILBILBIE,-21.704347,149.356583
4738,KOUMALA,-21.606626,149.244825
4739,CARMILA,-21.910044,149.416599
4740,ALEXANDRA,-21.164465,149.099609
4740,ALLIGATOR CREEK,-21.323934,149.211059
4740,ANDERGROVE,-21.096937,149.185333
4740,BAKERS CREEK,-21.219047,149.147044
4740,BALBERRA,-21.306414,149.11972
4740,BALNAGOWAN,-21.117645,149.0226
4740,BEACONSFIELD,-21.092283,149.175319
4740,BELMUNDA,-20.953636,149.013149
4740,BLACKS BEACH,-21.059068,149.192972
4740,CAPE HILLSBOROUGH,-20.932593,149.010339
4740,CHELONA,-21.258414,149.147139
4740,CONINGSBY,-21.108924,149.072293
4740,CREMORNE,-21.133813,149.188238
4740,DOLPHIN HEADS,-21.038892,149.184275
4740,DUMBLETON,-21.128305,149.076139
4740,DUNDULA,-21.207241,149.146582
4740,DUNNROCK,-21.272063,149.185112
4740,EAST MACKAY,-21.155562,149.200471
4740,EIMEO,-21.033629,149.156882
4740,ERAKALA,-21.126707,149.132467
4740,FOULDEN,-21.136662,149.14779
4740,GLENELLA,-21.117788,149.141924
4740,GRASSTREE BEACH,-21.359825,149.291169
4740,HABANA,-21.037485,149.080128
4740,HALIDAY BAY,-20.896209,148.986681
4740,HAY POINT,-21.293229,149.282416
4740,HOMEBUSH,-21.269145,149.05321
4740,MACKAY,-21.14342,149.186845
4740,MACKAY CANELAND,-21.138623,149.178092
4740,MACKAY HARBOUR,-21.112446,149.209018
4740,MACKAY NORTH,-21.123914,149.183845
4740,MACKAY SOUTH,-21.163103,149.187512
4740,MACKAY WEST,-21.152378,149.164465
4740,MCEWENS BEACH,-21.245474,149.200919
4740,MOUNT JUKES,-21.000817,148.93189
4740,MOUNT PLEASANT,-21.117434,149.157344
4740,MUNBURA,-21.339237,149.144488
4740,NINDAROO,-21.06918,149.133749
4740,NORTH MACKAY,-21.123914,149.183845
4740,OORALEA,-21.173214,149.143732
4740,PAGET,-21.175313,149.160407
4740,RACECOURSE,-21.165115,149.136454
4740,RICHMOND,-21.083136,149.144855
4740,ROSELLA,-21.237934,149.139289
4740,RURAL VIEW,-21.069456,149.144222
4740,SANDIFORD,-21.255805,149.08698
4740,SLADE POINT,-21.078892,149.213931
4740,SOUTH MACKAY,-21.163103,149.187512
4740,TE KOWAI,-21.164592,149.112163
4740,THE LEAP,-21.077116,149.023189
4740,WEST MACKAY,-21.152378,149.164465
4741,BALL BAY,-20.90451,148.99513
4741,BRAMPTON ISLAND,-20.81097,149.271083
4741,BRIGHTLY,-21.262445,148.891068
4741,CLAIRVIEW,-22.120009,149.532885
4741,COPPABELLA,-21.905781,148.370569
4741,DAYDREAM ISLAND,-20.25521,148.814006
4741,EPSOM,-21.471177,148.820311
4741,ETON,-21.262838,148.975427
4741,ETON NORTH,-21.230246,148.963121
4741,EUNGELLA HINTERLAND,-20.93174,148.346415
4741,FARLEIGH,-21.102407,149.103319
4741,GARGETT,-21.166952,148.746641
4741,HAMPDEN,-21.085305,148.95132
4741,HAZLEDEAN,-21.379423,148.947457
4741,HOOK ISLAND,-20.11921,148.924928
4741,KALARKA,-22.154927,149.524274
4741,KINCHANT DAM,-21.213706,148.901742
4741,KUTTABUL,-21.039377,148.9072
4741,LINDEMAN ISLAND,-20.44511,149.044355
4741,LONG ISLAND,-20.886013,148.843271
4741,MOUNT CHARLTON,-21.004588,148.746892
4741,MOUNT OSSA,-20.959998,148.83196
4741,MOUNT PELION,-20.936468,148.803621
4741,NORTH ETON,-21.230246,148.963121
4741,OAKENDEN,-21.311725,149.005351
4741,ORKABIE,-21.814291,149.366951
4741,OWENS CREEK,-21.111737,148.705833
4741,PINNACLE,-21.148121,148.717187
4741,PLEYSTOWE,-21.15408,149.037299
4741,SEAFORTH,-20.901462,148.967582
4741,SOUTH MOLLE,-20.271548,148.836881
4741,YALBOROO,-20.838249,148.655252
4742,BURTON,-21.538291,148.075393
4742,EAGLEFIELD,-21.511663,147.797507
4742,ELPHINSTONE,-21.513175,148.255896
4742,HAIL CREEK,-21.486769,148.424007
4742,KEMMIS,-21.52815,148.310449
4742,MOUNT BRITTON,-21.388459,148.534736
4742,NEBO,-21.689538,148.68773
4742,OXFORD,-21.831834,148.932592
4742,STRATHFIELD,-21.813257,148.682466
4742,TURRAWULLA,-21.21509,148.265258
4742,VALKYRIE,-22.074547,148.640846
4743,GLENDEN,-21.355672,148.115193
4743,SUTTOR,-21.339211,147.9815
4744,MORANBAH,-22.002169,148.046238
4745,DYSART,-22.588153,148.348719
4746,MAY DOWNS,-22.640498,148.916434
4746,MIDDLEMOUNT,-22.81046,148.699231
4750,BUCASIA,-21.043768,149.15747
4750,SHOAL POINT,-21.004296,149.153017
4751,GREENMOUNT,-21.188625,149.03059
4751,PALMYRA,-21.190445,149.0849
4751,VICTORIA PLAINS,-21.217435,149.012201
4751,WALKERSTON,-21.160228,149.064868
4753,DEVEREUX CREEK,-21.116487,148.890812
4753,MARIAN,-21.144343,148.94334
4754,BENHOLME,-21.158348,148.813809
4754,DOWS CREEK,-21.100209,148.758489
4754,MIA MIA,-21.225177,148.831572
4754,MIRANI,-21.158559,148.862285
4754,MOUNT MARTIN,-21.113287,148.804212
4754,PINEVALE,-21.309697,148.83206
4754,SEPTIMUS,-21.196477,148.743843
4756,FINCH HATTON,-21.142455,148.63221
4756,NETHERDALE,-21.139939,148.528195
4757,BROKEN RIVER,-21.167011,148.50552
4757,CREDITON,-21.19906,148.539433
4757,DALRYMPLE HEIGHTS,-21.076339,148.548074
4757,EUNGELLA,-21.131452,148.493756
4757,EUNGELLA DAM,-21.15401,148.382036
4798,CALEN,-20.897518,148.771151
4798,MENTMORE,-20.796059,148.77332
4798,PINDI PINDI,-20.870179,148.732671
4798,ST HELENS BEACH,-20.833906,148.838997
4799,BLOOMSBURY,-20.705298,148.595763
4799,MIDGE POINT,-20.648549,148.718015
4800,ANDROMACHE,-20.584521,148.420002
4800,BRANDY CREEK,-20.335471,148.673108
4800,BREADALBANE,-20.440031,148.59124
4800,CANNON VALLEY,-20.310512,148.657547
4800,CAPE CONWAY,-20.298122,148.746961
4800,CAPE GLOUCESTER,-20.065963,148.453709
4800,CONWAY,-20.426263,148.693516
4800,CONWAY BEACH,-20.478781,148.739299
4800,CRYSTAL BROOK,-20.347022,148.473951
4800,DINGO BEACH,-20.090969,148.49656
4800,DITTMER,-20.447422,148.404742
4800,FOXDALE,-20.346417,148.509554
4800,GLEN ISLA,-20.408871,148.620049
4800,GOORGANGA CREEK,-20.499481,148.467442
4800,GOORGANGA PLAINS,-20.484551,148.60349
4800,GREGORY RIVER,-20.279181,148.577529
4800,GUNYARRA,-20.509561,148.564631
4800,HAMILTON PLAINS,-20.382341,148.58749
4800,HIDEAWAY BAY,-20.077138,148.48182
4800,KELSEY CREEK,-20.426221,148.477091
4800,LAGUNA QUAYS,-20.654342,148.666658
4800,LAKE PROSERPINE,-20.404642,148.353762
4800,LETHEBROOK,-20.537287,148.649762
4800,MOUNT JULIAN,-20.374361,148.620449
4800,MOUNT MARLOW,-20.351211,148.623179
4800,MOUNT PLUTO,-20.330582,148.452721
4800,MYRTLEVALE,-20.329714,148.555317
4800,PALM GROVE,-20.40903,148.698328
4800,PAULS POCKET,-20.490781,148.416642
4800,PRESTON,-20.39773,148.661609
4800,PROSERPINE,-20.401636,148.581496
4800,RIORDANVALE,-20.284441,148.643358
4800,SILVER CREEK,-20.477071,148.467712
4800,STRATHDICKIE,-20.329371,148.611459
4800,SUGARLOAF,-20.313236,148.631605
4800,THOOPARA,-20.551781,148.561031
4800,WILSON BEACH,-20.473356,148.725413
4801,HAYMAN ISLAND,-20.049795,148.888223
4802,AIRLIE BEACH,-20.267869,148.716223
4802,CANNONVALE,-20.277364,148.699214
4802,FLAMETREE,-20.271493,148.749382
4802,JUBILEE POCKET,-20.280972,148.728773
4802,MANDALAY,-20.281338,148.739261
4802,MOUNT ROOPER,-20.28728,148.778286
4802,SHUTE HARBOUR,-20.290522,148.784573
4802,WOODWARK,-20.28799,148.671625
4803,HAMILTON ISLAND,-20.354415,148.963683
4804,COLLINSVILLE,-20.553361,147.845464
4804,MOUNT COOLON,-21.385474,147.341835
4804,MOUNT WYATT,-20.885712,147.261671
4804,NEWLANDS,-21.188521,147.90265
4804,SCOTTVILLE,-20.567641,147.819401
4804,SPRINGLANDS,-20.516214,147.673931
4805,BINBEE,-20.382548,147.885867
4805,BOGIE,-20.269168,147.953205
4805,BOWEN,-20.012106,148.246269
4805,BRISK BAY,-20.107751,148.293464
4805,DELTA,-20.011049,148.191834
4805,GUMLU,-19.878504,147.686785
4805,GUTHALUNGRA,-19.923932,147.843218
4805,MERINDA,-20.015068,148.163237
4805,QUEENS BEACH,-19.976284,148.22874
4806,CARSTAIRS,-19.669608,147.446511
4806,FREDERICKSFIELD,-19.733138,147.409282
4806,HOME HILL,-19.666125,147.415241
4806,INKERMAN,-19.698008,147.437721
4806,KIRKNIE,-19.894298,147.238685
4806,OSBORNE,-19.710417,147.331445
4806,RANGEMORE,-19.980267,147.454932
4806,WANGARATTA,-19.761787,147.477501
4806,WUNJUNGA,-19.774427,147.517441
4807,AIRDMILLAN,-19.546861,147.443697
4807,AIRVILLE,-19.653542,147.337255
4807,ALVA,-19.457502,147.481727
4807,AYR,-19.576054,147.405171
4807,CLARE,-19.785442,147.228085
4807,CLAREDALE,-19.782876,147.229086
4807,DALBEG,-20.267893,147.298616
4807,EIGHT MILE CREEK,-20.266356,147.281107
4807,JARVISFIELD,-19.577953,147.482314
4807,MCDESME,-19.615228,147.400111
4807,MILLAROO,-20.058024,147.281717
4807,MONA PARK,-19.703749,147.273993
4807,MOUNT KELLY,-19.668496,147.315326
4807,MULGRAVE,-19.831788,147.129926
4807,PARKSIDE,-19.591879,147.451831
4807,RITA ISLAND,-19.629058,147.5041
4807,SWANS LAGOON,-20.078837,147.224626
4808,BRANDON,-19.554272,147.353705
4808,COLEVALE,-19.507019,147.329222
4809,BARRATTA,-19.531139,147.213564
4809,CROMARTY,-19.46727,147.050065
4809,GIRU,-19.513789,147.107156
4809,HORSESHOE LAGOON,-19.558689,147.134855
4809,JERONA,-19.461137,147.284442
4809,MOUNT SURROUND,-19.51752,147.051036
4809,SHIRBOURNE,-19.55637,147.082415
4809,UPPER HAUGHTON,-19.700289,147.145175
4810,BELGIAN GARDENS,-19.245827,146.795727
4810,CAPE CLEVELAND,-19.334039,147.03189
4810,CASTLE HILL,-19.255784,146.808359
4810,NORTH WARD,-19.243259,146.803108
4810,PALLARENDA,-19.202601,146.774772
4810,RAILWAY ESTATE,-19.277916,146.815719
4810,ROWES BAY,-19.238796,146.788517
4810,SHELLY BEACH,-19.185054,146.754526
4810,SOUTH TOWNSVILLE,-19.26085,146.829748
4810,TOWN COMMON,-19.209785,146.73987
4810,TOWNSVILLE,-19.267358,146.80654
4810,WEST END,-19.257403,146.787287
4811,CLUDEN,-19.316209,146.82358
4811,IDALIA,-19.307272,146.803925
4811,JAMES COOK UNIVERSITY,-19.329929,146.758214
4811,MOUNT STUART,-19.345669,146.781812
4811,OAK VALLEY,-19.420751,146.835746
4811,OONOONBA,-19.29922,146.818138
4811,ROSENEATH,-19.355349,146.817984
4811,STUART,-19.337068,146.857078
4811,WULGURU,-19.328375,146.822422
4812,CURRAJONG,-19.274924,146.776217
4812,GULLIVER,-19.282127,146.771669
4812,HERMIT PARK,-19.286567,146.797021
4812,HYDE PARK CASTLETOWN,-19.272192,146.792923
4812,MUNDINGBURRA,-19.297979,146.787948
4812,MYSTERTON,-19.285665,146.79104
4812,PIMLICO,-19.281458,146.787493
4812,ROSSLEA,-19.295567,146.797118
4814,AITKENVALE,-19.297714,146.764341
4814,ANNANDALE,-19.317818,146.774576
4814,CRANBROOK,-19.306982,146.75101
4814,DOUGLAS,-19.320127,146.75108
4814,GARBUTT,-19.262782,146.760878
4814,GARBUTT EAST,-19.266329,146.783141
4814,HEATLEY,-19.288454,146.751569
4814,MOUNT LOUISA,-19.271695,146.748098
4814,MURRAY,-19.317787,146.79273
4814,VINCENT,-19.287956,146.762853
4815,CONDON,-19.330397,146.727724
4815,GUMLOW,-19.36119,146.701057
4815,KELSO,-19.382027,146.716905
4815,PINNACLES,-19.433969,146.704356
4815,RASMUSSEN,-19.352654,146.726586
4816,ALLIGATOR CREEK,-19.424915,146.947198
4816,BALGAL BEACH,-19.023082,146.413639
4816,BARRINGHA,-19.527599,146.815324
4816,BROOKHILL,-19.382279,146.830986
4816,BUCHANAN,-21.793411,145.940174
4816,CALCIUM,-19.676411,146.836419
4816,CARRUCHAN,-18.203881,145.889584
4816,CLEMANT,-19.097823,146.461382
4816,CRIMEA,-19.835027,146.695471
4816,CRYSTAL CREEK,-19.012405,146.270941
4816,CUNGULLA,-19.401774,147.110847
4816,ELLERBECK,-18.241079,145.992312
4816,GREENVALE,-18.974523,145.118786
4816,HIDDEN VALLEY,-18.980268,146.016898
4816,JULAGO,-19.363086,146.886623
4816,KENNEDY,-18.205321,145.956734
4816,MACROSSAN,-19.997674,146.443408
4816,MAJORS CREEK,-19.601091,146.895338
4816,MALPAS-TRENTON,-19.618338,142.236352
4816,MINGELA,-19.610652,146.715381
4816,MOUNT ELLIOT,-19.268366,147.046186
4816,MUTARNEE,-18.951734,146.285423
4816,NELIA,-20.653767,142.2145
4816,NOME,-19.381972,146.92793
4816,PALM ISLAND,-18.72665,146.630568
4816,PALUMA,-19.008864,146.209782
4816,PENTLAND,-20.523678,145.399867
4816,PRAIRIE,-20.870948,144.602335
4816,RAVENSWOOD,-20.099354,146.886937
4816,REID RIVER,-19.745526,146.776586
4816,ROLLINGSTONE,-19.045603,146.389122
4816,ROSS RIVER,-19.478177,146.793429
4816,SAVANNAH,-19.148749,142.100741
4816,SELLHEIM,-20.004778,146.419776
4816,THE CAPE,-19.334039,147.03189
4816,TOOMULLA,-19.080944,146.475605
4816,TOONPAN,-19.504229,146.871372
4816,TORRENS CREEK,-20.770755,145.017149
4816,WOODSTOCK,-19.598882,146.837839
4817,ALICE RIVER,-19.32661,146.59971
4817,BOHLE PLAINS,-19.288517,146.686466
4817,HERVEY RANGE,-19.377772,146.448268
4817,KIRWAN,-19.304614,146.741743
4817,RANGEWOOD,-19.314702,146.639715
4817,THURINGOWA CENTRAL,-19.309689,146.730125
4818,BEACH HOLM,-19.202291,146.659747
4818,BLACK RIVER,-19.235497,146.618441
4818,BLUE HILLS,-19.224439,146.492251
4818,BLUEWATER,-19.174414,146.550336
4818,BLUEWATER PARK,-19.210986,146.510939
4818,BOHLE,-19.26244,146.712287
4818,BURDELL,-19.244455,146.687873
4818,BUSHLAND BEACH,-19.194592,146.67533
4818,DEERAGUN,-19.24572,146.677227
4818,JENSEN,-19.251144,146.652176
4818,LYNAM,-19.279575,146.545517
4818,MOUNT LOW,-19.23596,146.666296
4818,MOUNT ST JOHN,-19.247283,146.742175
4818,SAUNDERS BEACH,-19.156644,146.604302
4818,SHAW,-19.273958,146.7006
4818,TOOLAKEA,-19.146119,146.582227
4818,YABULU,-19.21577,146.601361
4819,ARCADIA,-19.151037,146.86423
4819,FLORENCE BAY,-25.289015,152.897496
4819,HORSESHOE BAY,-19.118828,146.86075
4819,MAGNETIC ISLAND,-19.142127,146.834614
4819,NELLY BAY,-19.156932,146.852707
4819,PICNIC BAY,-19.174693,146.83747
4819,WEST POINT,-19.133166,146.784938
4820,ALABAMA HILL,-20.082915,146.249367
4820,BALFES CREEK,-20.21594,145.909498
4820,BASALT,-19.846003,145.594899
4820,BLACK JACK,-20.173458,146.133804
4820,BREDDAN,-19.95119,146.230718
4820,BROUGHTON,-20.113984,146.414899
4820,CAMPASPE,-20.708723,146.317285
4820,CHARTERS TOWERS,-20.068768,146.269062
4820,COLUMBIA,-20.062507,146.280805
4820,DOTSWOOD,-19.627716,146.283978
4820,GRAND SECRET,-20.076149,146.244864
4820,LISSNER,-20.076298,146.258571
4820,LLANARTH,-21.139488,146.447114
4820,MILLCHESTER,-20.095285,146.27596
4820,MOSMAN PARK,-20.090941,146.26161
4820,QUEENTON,-20.079422,146.271093
4820,RICHMOND HILL,-20.067167,146.259456
4820,SEVENTY MILE,-20.232835,146.345722
4820,SOUTHERN CROSS,-20.01327,146.168557
4820,TOLL,-20.050585,146.255598
4820,TOWERS HILL,-20.084801,146.262201
4821,DUTTON RIVER,-20.281399,143.87636
4821,HUGHENDEN,-20.842982,144.201073
4821,PORCUPINE,-20.74134,144.35442
4821,STAMFORD,-21.265193,143.80943
4821,TANGORIN,-21.726606,144.202896
4822,ALBION,-21.50903,142.69317
4822,BELLFIELD,-19.341988,143.111984
4822,BURLEIGH,-20.258595,143.106303
4822,CAMBRIDGE,-20.421992,142.553597
4822,MAXWELTON,-20.723827,142.680621
4822,NONDA,-20.679251,142.466674
4822,RICHMOND,-20.728793,143.14132
4822,SAXBY,-20.035225,142.489032
4822,VICTORIA VALE,-19.362538,142.760081
4822,WOOLGAR,-20.316397,143.418066
4823,CARPENTARIA,-18.127441,139.959459
4823,JULIA CREEK,-20.657169,141.745752
4823,KYNUNA,-21.577686,141.919757
4823,MCKINLAY,-21.272964,141.294486
4823,STOKES,-18.68298,140.514753
4823,TALDORA,-19.642184,140.942325
4823,WARBURTON,-22.72329,141.008842
4824,CLONCURRY,-20.704158,140.505319
4824,FOUR WAYS,-19.23309,140.341303
4824,GIDYA,-19.289655,139.737718
4824,KURIDALA,-21.289316,140.499444
4824,OORINDI,-20.691261,141.076875
4824,THREE RIVERS,-20.031009,140.037821
4825,ALEXANDRIA,-21.164318,149.098918
4825,ALPURRURULAM,-20.9785,137.846391
4825,BARKLY,-20.460772,138.468593
4825,BREAKAWAY,-20.72354,139.52417
4825,BUCKINGHAM,-22.254246,139.678121
4825,CARRANDOTTA,-21.970873,138.617
4825,DAJARRA,-21.695822,139.515933
4825,DUCHESS,-21.356683,139.863534
4825,FIELDING,-18.94322,141.17034
4825,FISHER,-20.72386,139.51829
4825,GEORGINA,-22.444076,139.656812
4825,GUNPOWDER,-19.69299,139.362537
4825,HAPPY VALLEY,-20.748432,139.489637
4825,HEALY,-20.74181,139.501352
4825,KALKADOON,-20.664824,139.494047
4825,LANSKEY,-20.693134,139.498343
4825,LAWN HILL,-18.584992,138.588456
4825,MENZIES,-20.718088,139.495285
4825,MICA CREEK,-20.766764,139.491334
4825,MILES END,-20.724105,139.486704
4825,MORNINGTON,-20.737329,139.493599
4825,MOUNT ISA,-20.726631,139.494307
4825,MOUNT ISA EAST,-20.726261,139.507319
4825,PARKSIDE,-20.73894,139.484456
4825,PIONEER,-20.719123,139.508873
4825,PITURIE,-21.589101,138.512962
4825,RYAN,-20.699166,139.496891
4825,SOLDIERS HILL,-20.703962,139.486033
4825,SPREADBOROUGH,-20.765353,139.49857
4825,SUNSET,-20.708587,139.510068
4825,THE GAP,-27.459196,152.980734
4825,THE MONUMENT,-21.759691,139.913529
4825,TOWNVIEW,-20.731905,139.507679
4825,WAVERLEY,-21.225846,139.162521
4825,WINSTON,-20.71266,139.496701
4828,CAMOOWEAL,-19.921773,138.119119
4829,AMAROO,-23.393865,139.673121
4829,BEDOURIE,-24.359695,139.469579
4829,BOULIA,-22.90968,139.906842
4829,MIN MIN,-22.763197,140.86928
4829,STURT,-23.564872,138.664004
4829,TOKO,-22.869132,138.799895
4829,WARENDA,-22.641239,140.540447
4829,WILLS,-22.96318,140.14182
4830,BURKETOWN,-17.741706,139.547865
4830,DOOMADGEE,-17.943531,138.825737
4830,GREGORY,-18.646098,139.251609
4830,GREGORY DOWNS,-18.646098,139.251609
4830,NICHOLSON,-17.743102,138.738476
4849,CARDWELL,-18.265652,146.027929
4849,DAMPER CREEK,-18.326847,146.052501
4849,HINCHINBROOK,-18.344143,146.214621
4849,LUMHOLTZ,-18.200131,145.853994
4849,RUNGOO,-18.459988,146.150513
4850,ABERGOWRIE,-18.474994,145.885791
4850,ALLINGHAM,-18.643978,146.164126
4850,BAMBAROO,-18.844995,146.180491
4850,BEMERSIDE,-18.582668,146.200391
4850,BLACKROCK,-18.688017,146.199609
4850,BRAEMEADOWS,-18.62639,146.266
4850,COOLBIE,-18.915336,146.253424
4850,CORDELIA,-18.594005,146.25902
4850,DALRYMPLE CREEK,-18.493685,146.02464
4850,FORESTHOME,-18.627217,146.199117
4850,FORREST BEACH,-18.711347,146.298869
4850,GAIRLOCH,-18.607852,146.184623
4850,GARRAWALT,-18.489951,145.863798
4850,HALIFAX,-18.579516,146.284958
4850,HAWKINS CREEK,-18.611534,146.102777
4850,HELENS HILL,-18.771527,146.134055
4850,INGHAM,-18.650485,146.15459
4850,LANNERCOST,-18.573153,146.032624
4850,LONG POCKET,-18.511827,146.014777
4850,LUCINDA,-18.526076,146.332784
4850,MACKNADE,-18.585858,146.259718
4850,MOUNT FOX,-18.822599,145.78687
4850,ORIENT,-18.789466,146.216994
4850,PEACOCK SIDING,-18.686298,145.988426
4850,TAYLORS BEACH,-18.62535,146.326149
4850,TOOBANNA,-18.720486,146.148248
4850,TREBONNE,-18.627572,146.077344
4850,UPPER STONE,-18.720008,145.962727
4850,VALLEY OF LAGOONS,-18.674853,145.101356
4850,VICTORIA ESTATE,-18.583537,146.284366
4850,VICTORIA PLANTATION,-18.646596,146.201942
4850,WALLAMAN,-18.647209,145.873288
4850,WHARPS,-18.694607,146.077165
4850,YURUGA,-18.838037,146.156605
4852,BINGIL BAY,-17.830091,146.09996
4852,CARMOO,-17.943944,146.051902
4852,DJIRU,-17.854638,146.066852
4852,DUNK,-17.937386,146.142977
4852,GARNERS BEACH,-17.813153,146.100589
4852,MIDGEREE BAR,-17.801452,146.082712
4852,MISSION BEACH,-17.867288,146.107163
4852,SOUTH MISSION,-17.936831,146.094817
4852,TAM O'SHANTER,-17.914538,146.071475
4852,WONGALING BEACH,-17.904525,146.091559
4854,BILYANA,-18.119359,145.913114
4854,BIRKALLA,-17.919471,145.943804
4854,BULGUN,-17.89678,145.928565
4854,CARDSTONE,-17.751214,145.609392
4854,DINGO POCKET,-17.935513,145.829472
4854,DJARAWONG,-17.870218,145.978357
4854,EAST FELUGA,-17.883854,146.00488
4854,EURAMO,-17.999622,145.936295
4854,FELUGA,-17.880818,145.955559
4854,HULL HEADS,-17.993375,146.065438
4854,JARRA CREEK,-17.943812,145.897901
4854,KOOROOMOOL,-18.005233,145.635855
4854,LOWER TULLY,-17.995548,145.993439
4854,MERRYBURN,-17.912091,145.976448
4854,MIDGENOO,-17.891411,145.94248
4854,MOUNT MACKAY,-17.9666,145.976599
4854,MUNRO PLAINS,-17.971413,145.801443
4854,MURRAY UPPER,-18.115464,145.802758
4854,MURRIGAL,-18.05984,145.90934
4854,ROCKINGHAM,-18.013021,145.991444
4854,SILKY OAK,-17.969283,145.958124
4854,TULLY,-17.93404,145.923367
4854,TULLY HEADS,-18.017328,146.058361
4854,WALTER HILL,-17.852423,145.795002
4854,WARRAMI,-18.089742,145.826153
4855,DAVESON,-17.786658,146.021722
4855,EL ARISH,-17.807787,146.007034
4855,FRIDAY POCKET,-17.830057,146.003148
4855,GRANADILLA,-17.856451,146.025847
4855,JAFFA,-17.789138,146.004946
4855,MAADI,-17.835795,145.995135
4855,MARIA CREEKS,-17.811167,146.029453
4855,SHELL POCKET,-17.81317,145.991173
4856,GOOLBOO,-17.719188,146.026968
4856,JAPOONVALE,-17.73367,145.953653
4856,MCCUTCHEON,-17.716925,146.049701
4856,NO 4 BRANCH,-17.762573,145.976894
4856,NO 5 BRANCH,-17.731309,146.009654
4856,SILKWOOD,-17.737101,146.000501
4856,WALTER LEVER ESTATE,-17.730394,145.976885
4857,SILKWOOD EAST,-17.747122,146.019451
4858,COMOON LOOP,-17.566621,146.035946
4858,ETTY BAY,-17.568241,146.087622
4858,MARTYVILLE,-17.610539,146.036998
4858,MOURILYAN,-17.581035,146.041224
4858,MOURILYAN HARBOUR,-17.596098,146.115297
4858,NEW HARBOURLINE,-17.614704,146.064248
4859,NO 6 BRANCH,-17.596413,145.971405
4859,SOUTH JOHNSTONE,-17.598711,145.994697
4860,BAMBOO CREEK,-17.56422,145.996277
4860,BELVEDERE,-17.522549,145.990091
4860,COCONUTS,-17.505932,146.064506
4860,COOROO LANDS,-17.520685,145.908772
4860,COORUMBA,-17.556286,145.914322
4860,COQUETTE POINT,-17.527625,146.07124
4860,CULLINANE,-17.515215,146.026047
4860,DARADGEE,-17.480377,146.00437
4860,EAST INNISFAIL,-17.531357,146.033753
4860,EAST PALMERSTON,-17.611823,145.840401
4860,EATON,-17.505424,146.043544
4860,EUBENANGEE,-17.408819,145.982382
4860,FITZGERALD CREEK,-17.494151,145.979356
4860,FLYING FISH POINT,-17.502205,146.07592
4860,GARRADUNGA,-17.460606,145.996078
4860,GOONDI,-17.507171,146.010445
4860,GOONDI BEND,-17.51922,146.010654
4860,GOONDI HILL,-17.524638,146.017134
4860,HUDSON,-17.526865,146.001878
4860,INNISFAIL,-17.524021,146.031079
4860,INNISFAIL ESTATE,-17.519048,146.039342
4860,JUBILEE HEIGHTS,-17.476379,146.027419
4860,MIGHELL,-17.536279,146.029975
4860,MUNDOO,-17.558323,146.015723
4860,NERADA,-17.558402,145.891203
4860,NJATJAN,-17.529893,145.929745
4860,O'BRIENS HILL,-17.519035,145.987559
4860,PALMERSTON,-17.593125,145.7248
4860,PIN GIN HILL,-17.563894,145.951068
4860,SOUTH INNISFAIL,-17.544015,146.033463
4860,STOTERS HILL,-17.534175,145.966162
4860,SUNDOWN,-17.494503,146.021966
4860,UPPER DARADGEE,-17.518726,145.960661
4860,VASA VIEWS,-17.468464,145.965588
4860,WANJURU,-17.467441,146.065971
4860,WEBB,-17.529775,146.043465
4860,WOOROONOORAN,-17.331147,145.854939
4861,BABINDA,-17.344418,145.924815
4861,BARTLE FRERE,-17.448355,145.884257
4861,EAST RUSSELL,-17.322697,145.958752
4865,GOLDSBOROUGH,-17.152995,145.743914
4865,GORDONVALE,-17.09283,145.784964
4865,GREEN HILL,-27.56093,151.940139
4865,KAMMA,-17.025792,145.810762
4865,LITTLE MULGRAVE,-17.141105,145.723528
4865,PACKERS CAMP,-17.051349,145.794568
4865,REDBANK,-17.030199,145.795092
4868,BAYVIEW HEIGHTS,-16.962827,145.730429
4868,MOUNT SHERIDAN,-16.987309,145.739783
4868,WHITE ROCK,-16.976654,145.747602
4868,WOREE,-16.956574,145.740057
4869,BENTLEY PARK,-17.004072,145.738835
4869,EDMONTON,-17.018792,145.744479
4869,MOUNT PETER,-17.053867,145.741171
4869,WRIGHTS CREEK,-17.040606,145.763825
4870,AEROGLEN,-16.883938,145.746732
4870,BARRON GORGE,-16.871312,145.658936
4870,BRINSMEAD,-16.904835,145.709572
4870,BUNGALOW,-16.935223,145.76253
4870,CAIRNS,-16.925397,145.775178
4870,CAIRNS CENTRAL,-16.925022,145.77218
4870,CAIRNS NORTH,-16.906599,145.759714
4870,CAIRNS ORCHID PLAZA,-16.922503,145.777718
4870,EARLVILLE,-16.943967,145.738473
4870,EDGE HILL,-16.900358,145.74228
4870,FRESHWATER,-16.879118,145.713704
4870,KAMERUNGA,-16.879536,145.689236
4870,KANIMBLA,-16.913789,145.721488
4870,LAMB RANGE,-17.090216,145.644989
4870,MANOORA,-16.913743,145.739102
4870,MANUNDA,-16.92488,145.740824
4870,MOOROOBOOL,-16.935179,145.736159
4870,NORTH CAIRNS,-16.906599,145.759714
4870,PARRAMATTA PARK,-16.924644,145.764865
4870,PORTSMITH,-16.938965,145.764857
4870,REDLYNCH,-16.887868,145.696333
4870,STRATFORD,-16.875375,145.733043
4870,WESTCOURT,-16.927796,145.756186
4870,WHITFIELD,-16.904288,145.724534
4871,ABINGDON DOWNS,-17.608738,143.185168
4871,ALMADEN,-17.340063,144.678134
4871,ALOOMBA,-17.11626,145.834863
4871,AMBER,-17.747312,144.31566
4871,ARBOUIN,-17.027167,143.922625
4871,ARCHER RIVER,-13.429103,142.941374
4871,AURUKUN,-13.602923,141.816156
4871,BASILISK,-17.660211,145.991997
4871,BELLENDEN KER,-17.272688,145.920131
4871,BELLEVUE,-16.530664,144.321053
4871,BLACKBULL,-17.943625,141.75674
4871,BOLWARRA,-17.389213,144.179469
4871,BOMBEETA,-17.678672,145.966075
4871,BOOGAN,-17.605083,146.012371
4871,BRAMSTON BEACH,-17.353046,146.017537
4871,BULLERINGA,-17.613884,143.9334
4871,CAMP CREEK,-17.623712,145.969437
4871,CHILLAGOE,-17.153767,144.522725
4871,CLARAVILLE,-18.662508,141.705537
4871,COEN,-13.936008,143.199183
4871,CONJUBOY,-18.682516,144.74002
4871,CORALIE,-18.281283,141.743209
4871,COWLEY,-17.681772,146.054798
4871,COWLEY BEACH,-17.702894,146.101051
4871,COWLEY CREEK,-17.711043,146.033659
4871,CROYDON,-18.20513,142.249368
4871,CRYSTALBROOK,-17.358141,144.538195
4871,CURRAJAH,-17.581027,145.981949
4871,DEERAL,-17.217984,145.916896
4871,DESAILLY,-16.484092,144.901957
4871,DIXIE,-15.11324,143.305674
4871,EAST CREEK,-19.077245,141.701754
4871,EAST TRINITY,-16.922505,145.811573
4871,EDWARD RIVER,-14.909531,142.511718
4871,EINASLEIGH,-18.514512,144.093797
4871,ESMERALDA,-18.865491,142.582742
4871,FISHERY FALLS,-17.185353,145.887584
4871,FITZROY ISLAND,-16.932917,145.993919
4871,FORSAYTH,-18.587396,143.601643
4871,FOSSILBROOK,-17.81468,144.388429
4871,GAMBOOLA,-16.543316,143.665385
4871,GEORGETOWN,-18.291804,143.54961
4871,GERMANTOWN,-17.646666,145.95631
4871,GILBERT RIVER,-18.194199,142.882279
4871,GLEN BOUGHTON,-16.940466,145.816925
4871,GREEN ISLAND,-16.758656,145.974328
4871,GROGANVILLE,-16.478614,144.369742
4871,GUNUNA,-16.666758,139.178916
4871,HIGHBURY,-16.42556,143.144923
4871,HOLROYD RIVER,-14.489947,142.823739
4871,HURRICANE,-16.584052,144.65802
4871,JULATTEN,-16.5906,145.34038
4871,KARRON,-17.481504,141.897054
4871,KOWANYAMA,-15.277946,141.814451
4871,KURRIMINE BEACH,-17.776575,146.107825
4871,LAKEFIELD,-14.935819,144.205467
4871,LAKELAND,-15.861523,144.857906
4871,LAURA,-15.559626,144.444895
4871,LIZARD,-14.672757,145.453232
4871,LOCKHART,-12.999565,143.239576
4871,LOWER COWLEY,-17.698156,146.074161
4871,LYNDHURST,-19.206578,144.369916
4871,LYNDSIDE,-16.873899,143.475788
4871,MACALISTER RANGE,-16.832986,145.670518
4871,MARAMIE,-16.021241,142.404694
4871,MENA CREEK,-17.655,145.956529
4871,MIRIWINNI,-17.402072,145.909001
4871,MORESBY,-17.635474,146.028513
4871,MORNINGTON ISLAND,-16.562462,139.431571
4871,MOUNT CARBINE,-16.527771,145.132804
4871,MOUNT MOLLOY,-16.675565,145.330036
4871,MOUNT MULGRAVE,-16.372945,143.981826
4871,MOUNT MULLIGAN,-16.854651,144.876468
4871,MOUNT SURPRISE,-18.1477,144.316101
4871,NORTHHEAD,-18.830226,143.246868
4871,NYCHUM,-16.837363,144.421313
4871,PALMER,-15.993697,144.056193
4871,PETFORD,-17.345919,144.93027
4871,PORMPURAAW,-14.661105,141.835032
4871,PORTLAND ROADS,-12.913764,143.024234
4871,RAVENSWORTH,-17.348355,143.684382
4871,RED RIVER,-17.384491,143.321398
4871,ROOKWOOD,-17.041443,144.342025
4871,SANDY POCKET,-17.660555,146.037217
4871,SOUTH WELLESLEY ISLANDS,-17.046105,139.414743
4871,SOUTHEDGE,-16.79995,145.285972
4871,SPRINGFIELD,-17.96991,144.4244
4871,STAATEN,-16.590791,142.739989
4871,STOCKTON,-17.576307,146.027863
4871,STRATHMORE,-17.862329,142.559244
4871,TALAROO,-18.124614,143.947319
4871,THORNBOROUGH,-16.95491,145.008457
4871,UTCHEE CREEK,-17.628934,145.91574
4871,WANGAN,-17.577763,146.007286
4871,WARRUBULLEN,-17.705358,146.014319
4871,WAUGH POCKET,-17.453056,145.944124
4871,WELLESLEY ISLANDS,-16.481832,139.51928
4871,WEST WELLESLEY ISLANDS,-16.788137,139.117425
4871,WOOPEN CREEK,-17.469907,145.876798
4871,WROTHAM,-16.657205,144.006126
4871,YAGOONYA,-16.426223,141.562356
4871,YARRABAH,-17.017549,145.90106
4871,YARRADEN,-14.307706,143.305183
4872,BARRINE,-17.231966,145.62332
4872,BARWIDGI,-17.73689,144.530657
4872,DANBULLA,-17.188056,145.662629
4872,DIMBULAH,-17.149155,145.111062
4872,FORTY MILE,-18.044348,144.758026
4872,GLEN RUTH,-18.070094,145.416028
4872,GUNNAWARRA,-17.943936,145.15399
4872,INNOT HOT SPRINGS,-17.667829,145.238466
4872,KAIRI,-17.216605,145.543747
4872,KIRRAMA,-18.151923,145.612316
4872,KOOMBOOLOOMBA,-17.834385,145.573604
4872,KOWROWA,-16.804628,145.558548
4872,LAKE TINAROO,-17.223516,145.57936
4872,MINNAMOOLKA,-18.178865,145.137882
4872,MOUNT GARNET,-17.676122,145.114428
4872,MUNDERRA,-17.778408,144.890722
4872,MUTCHILBA,-17.137158,145.206945
4872,SILVER VALLEY,-17.562827,145.246567
4872,TINAROO,-17.166372,145.550815
4872,WAIRUNA,-18.446913,145.309602
4872,WALKAMIN,-17.124017,145.425462
4873,BAMBOO,-16.372831,145.384849
4873,BONNIE DOON,-16.452983,145.398705
4873,CAPE TRIBULATION,-16.079301,145.468297
4873,CASSOWARY,-16.53039,145.424758
4873,COOYA BEACH,-16.448446,145.407922
4873,COW BAY,-16.232846,145.453983
4873,DAGMAR,-16.234741,145.283551
4873,DAINTREE,-16.249924,145.319171
4873,DEDIN,-16.283671,145.25817
4873,DIWAN,-16.189791,145.415508
4873,FINLAY VALE,-16.466461,145.347539
4873,FOREST CREEK,-16.24057,145.362317
4873,KIMBERLEY,-16.256802,145.444787
4873,LOW ISLES,-16.385709,145.565031
4873,LOWER DAINTREE,-16.275974,145.388437
4873,MIALLO,-16.385641,145.376199
4873,MOSSMAN,-16.461048,145.37339
4873,MOSSMAN GORGE,-16.466251,145.363469
4873,NEWELL,-16.429516,145.404117
4873,NOAH,-16.173891,145.297591
4873,ROCKY POINT,-27.26776,150.756714
4873,SHANNONVALE,-16.500221,145.367759
4873,SPURGEON,-16.257502,145.062974
4873,STEWART CREEK VALLEY,-16.273901,145.31346
4873,SYNDICATE,-16.434728,145.242321
4873,THORNTON BEACH,-16.173374,145.440705
4873,UPPER DAINTREE,-16.227141,145.296761
4873,WHYANBEEL,-16.371201,145.367249
4873,WONGA,-16.346043,145.409932
4874,EVANS LANDING,-12.662368,141.849076
4874,JARDINE RIVER,-11.294186,142.611734
4874,MAPOON,-12.392764,141.934732
4874,MISSION RIVER,-12.579083,141.896793
4874,NANUM,-12.64008,141.863577
4874,NAPRANUM,-12.6825,141.890117
4874,ROCKY POINT,-12.618763,141.885675
4874,SHELBURNE,-12.219833,142.584893
4874,TRUNDING,-12.634123,141.871021
4874,WEIPA,-12.633448,141.871667
4874,WEIPA AIRPORT,-12.67849,141.924783
4874,WENLOCK,-12.550998,142.670024
4875,BADU ISLAND,-10.120146,142.139423
4875,COCONUT ISLAND,-10.050483,143.069058
4875,DARNLEY ISLAND,-9.597097,143.764057
4875,DAUAN ISLAND,-9.41177,142.536966
4875,ERUB,-9.587993,143.77073
4875,HORN ISLAND,-10.593752,142.285287
4875,KUBIN VILLAGE,-10.234148,142.216571
4875,MABUIAG ISLAND,-9.957761,142.183055
4875,MOA ISLAND,-10.188294,142.264492
4875,MULGRAVE ISLAND,-28.079812,153.402724
4875,MURRAY ISLAND,-9.916823,144.051339
4875,SAIBAI ISLAND,-9.38806,142.625873
4875,STEPHENS ISLAND,-9.507367,143.545451
4875,THURSDAY ISLAND,-10.583796,142.220601
4875,WARRABER ISLAND,-10.207712,142.823492
4875,YAM ISLAND,-9.898608,142.770817
4875,YORKE ISLAND,-9.747416,143.409015
4876,BAMAGA,-10.851692,142.427014
4876,INJINOO,-11.057093,142.262784
4876,NEW MAPOON,-10.802654,142.445717
4876,SEISIA,-10.850845,142.366112
4876,UMAGICO,-10.918605,142.396534
4877,CRAIGLIE,-16.535286,145.467604
4877,KILLALOE,-16.50605,145.440188
4877,MOWBRAY,-16.56639,145.477438
4877,OAK BEACH,-16.589879,145.513507
4877,PORT DOUGLAS,-16.483986,145.46582
4877,WANGETTI,-16.664449,145.566327
4878,BARRON,-16.838291,145.708683
4878,CARAVONICA,-16.871009,145.67826
4878,HOLLOWAYS BEACH,-16.842362,145.739486
4878,MACHANS BEACH,-16.852118,145.745753
4878,SMITHFIELD,-16.848563,145.702333
4878,YORKEYS KNOB,-16.811855,145.72086
4879,CLIFTON BEACH,-16.765776,145.668652
4879,ELLIS BEACH,-16.730748,145.655805
4879,KEWARRA BEACH,-16.782558,145.683517
4879,PALM COVE,-16.747083,145.670998
4879,TRINITY BEACH,-16.79042,145.691383
4879,TRINITY PARK,-16.805694,145.700769
4880,ARRIGA,-17.109908,145.301993
4880,BIBOOHRA,-16.917396,145.421072
4880,CHEWKO,-17.071758,145.373432
4880,GLEN RUSSELL,-17.003788,145.265453
4880,MAREEBA,-16.992194,145.422204
4880,PADDYS GREEN,-17.002578,145.372112
4881,KOAH,-16.824388,145.509799
4881,KURANDA,-16.821476,145.634177
4881,MONA MONA,-16.777638,145.613077
4881,SPEEWAH,-16.88444,145.609202
4882,TOLGA,-17.185835,145.463033
4883,ATHERTON,-17.268273,145.47457
4883,CARRINGTON,-17.304706,145.458932
4883,EAST BARRON,-17.30843,145.534956
4883,UPPER BARRON,-17.373607,145.536161
4883,WONGABEL,-17.327761,145.470665
4884,GADGARRA,-17.219315,145.696889
4884,LAKE BARRINE,-17.230207,145.654778
4884,LAKE EACHAM,-17.302889,145.634411
4884,YUNGABURRA,-17.270524,145.583106
4885,BUTCHERS CREEK,-17.363155,145.69377
4885,GLEN ALLYN,-17.384245,145.666291
4885,JAGGAN,-17.395964,145.597665
4885,KUREEN,-17.340459,145.568281
4885,MALANDA,-17.351899,145.592764
4885,NORTH JOHNSTONE,-17.324356,145.66547
4885,PEERAMON,-17.318794,145.619347
4885,TARZALI,-17.423736,145.603861
4885,TOPAZ,-17.430265,145.72086
4886,BEATRICE,-17.542146,145.605722
4886,ELLINJAA,-17.503155,145.632382
4886,MAALAN,-17.614955,145.602943
4886,MIDDLEBROOK,-17.562825,145.636352
4886,MILLAA MILLAA,-17.513293,145.613119
4886,MINBUN,-17.474264,145.58234
4886,MOREGATTA,-17.495586,145.578412
4886,MUNGALLI,-17.546295,145.697091
4887,HERBERTON,-17.384931,145.386636
4887,IRVINEBANK,-17.428458,145.199097
4887,KALUNGA,-17.449687,145.380865
4887,MOOMIN,-17.360237,145.406904
4887,WATSONVILLE,-17.376368,145.293136
4887,WONDECLA,-17.411073,145.39226
4888,EVELYN,-17.499336,145.491052
4888,KABAN,-17.50381,145.390013
4888,MILLSTREAM,-17.644817,145.344895
4888,RAVENSHOE,-17.60798,145.483223
4888,TUMOULIN,-17.567647,145.456494
4890,HOWITT,-17.281509,141.625841
4890,NORMAN,-17.679813,141.075672
4890,NORMANTON,-17.669996,141.079184
4891,KARUMBA,-17.483843,140.839772
4895,BLOOMFIELD,-16.013552,145.263051
4895,COOKTOWN,-15.467488,145.249502
4895,DEGARRA,-15.937966,145.349402
4895,HELENVALE,-15.707322,145.222621
4895,HOPE VALE,-15.135883,145.171864
4895,ROSSVILLE,-15.752802,145.268291
4895,STARCKE,-15.050684,145.122388
4895,WUJAL WUJAL,-15.968983,145.315494
9000,BRISBANE,-27.603479,152.823141
9001,BRISBANE,-27.603479,152.823141
9002,BRISBANE,-27.603479,152.823141
9005,BRISBANE,-27.603479,152.823141
9007,BRISBANE,-27.603479,152.823141
9008,BRISBANE,-27.603479,152.823141
9009,BRISBANE,-27.603479,152.823141
9010,BRISBANE,-27.603479,152.823141
9013,BRISBANE,-27.603479,152.823141
9015,BRISBANE,-27.603479,152.823141
9020,BRISBANE,-27.603479,152.823141
